{"type":"FeatureCollection","bbox":[-58.534,-34.557,-58.496,-34.528],"features":[{"type":"Feature","properties":{"id":274965320,"kind":"rail","class":"rail","name":"FC Belgrano","ref":"CC"},"geometry":{"type":"LineString","coordinates":[[-58.506644,-34.540437],[-58.526073,-34.530577],[-58.527702,-34.530124],[-58.531322,-34.52963]]}},{"type":"Feature","properties":{"id":275155706,"kind":"rail","class":"rail","name":"FC Belgrano","ref":"CC"},"geometry":{"type":"LineString","coordinates":[[-58.531233,-34.529608],[-58.527692,-34.530084],[-58.526876,-34.530262],[-58.525858,-34.53063],[-58.506646,-34.540391]]}},{"type":"Feature","properties":{"id":468424216,"kind":"road","class":"secondary","name":"Diagonal 76 - Juan Martín Campos"},"geometry":{"type":"LineString","coordinates":[[-58.532685,-34.555402],[-58.53214,-34.554555]]}},{"type":"Feature","properties":{"id":1285069721,"kind":"road","class":"secondary","name":"76 - Juan Martín Campos"},"geometry":{"type":"LineString","coordinates":[[-58.534271,-34.556708],[-58.533649,-34.556194]]}},{"type":"Feature","properties":{"id":1285069722,"kind":"road","class":"secondary","name":"76 - Juan Martín Campos"},"geometry":{"type":"LineString","coordinates":[[-58.533649,-34.556194],[-58.532685,-34.555402]]}},{"type":"Feature","properties":{"id":1285069723,"kind":"road","class":"secondary","name":"Diagonal 76 - Juan Martín Campos"},"geometry":{"type":"LineString","coordinates":[[-58.53214,-34.554555],[-58.531926,-34.554195]]}},{"type":"Feature","properties":{"id":26513086,"kind":"road","class":"tertiary","name":"Carlos Francisco Melo","oneway":"yes"},"geometry":{"type":"LineString","coordinates":[[-58.524578,-34.550445],[-58.515071,-34.545941]]}},{"type":"Feature","properties":{"id":47087019,"kind":"road","class":"tertiary","name":"23 - 4 de Febrero"},"geometry":{"type":"LineString","coordinates":[[-58.533864,-34.545412],[-58.529022,-34.549093]]}},{"type":"Feature","properties":{"id":47413558,"kind":"road","class":"secondary","name":"1 - Avenida de los Constituyentes (GSM) / Avenida de los Constituyentes (VL)"},"geometry":{"type":"LineString","coordinates":[[-58.526615,-34.545054],[-58.524578,-34.550445]]}},{"type":"Feature","properties":{"id":85099560,"kind":"road","class":"secondary","name":"1 - Avenida de los Constituyentes (GSM) / Avenida de los Constituyentes (VL)"},"geometry":{"type":"LineString","coordinates":[[-58.524578,-34.550445],[-58.522793,-34.553112],[-58.521085,-34.55527]]}},{"type":"Feature","properties":{"id":267139617,"kind":"road","class":"secondary","name":"Diagonal 76 - Juan Martín Campos","oneway":"no"},"geometry":{"type":"LineString","coordinates":[[-58.529022,-34.549093],[-58.527499,-34.54644]]}},{"type":"Feature","properties":{"id":375751595,"kind":"road","class":"tertiary","name":"General Julio Argentino Roca","oneway":"yes"},"geometry":{"type":"LineString","coordinates":[[-58.52166,-34.545653],[-58.525666,-34.547546]]}},{"type":"Feature","properties":{"id":567226590,"kind":"road","class":"tertiary","name":"33 - Mendoza","oneway":"yes"},"geometry":{"type":"LineString","coordinates":[[-58.529825,-34.553276],[-58.530769,-34.552151]]}},{"type":"Feature","properties":{"id":567226591,"kind":"road","class":"secondary","name":"Diagonal 76 - Juan Martín Campos"},"geometry":{"type":"LineString","coordinates":[[-58.530769,-34.552151],[-58.530187,-34.551143]]}},{"type":"Feature","properties":{"id":567226592,"kind":"road","class":"tertiary","name":"Diagonal 31 - Mendoza"},"geometry":{"type":"LineString","coordinates":[[-58.530405,-34.553161],[-58.529825,-34.553276]]}},{"type":"Feature","properties":{"id":1055868957,"kind":"road","class":"tertiary","name":"Diagonal 31 - Mendoza"},"geometry":{"type":"LineString","coordinates":[[-58.524451,-34.556369],[-58.52349,-34.555803]]}},{"type":"Feature","properties":{"id":1285044565,"kind":"road","class":"tertiary","name":"Diagonal 31 - Mendoza"},"geometry":{"type":"LineString","coordinates":[[-58.528775,-34.553728],[-58.527527,-34.554542],[-58.525543,-34.556415],[-58.524986,-34.556536],[-58.524451,-34.556369]]}},{"type":"Feature","properties":{"id":1285069724,"kind":"road","class":"secondary","name":"Diagonal 76 - Juan Martín Campos"},"geometry":{"type":"LineString","coordinates":[[-58.531926,-34.554195],[-58.531337,-34.553169]]}},{"type":"Feature","properties":{"id":47087018,"kind":"road","class":"secondary","name":"Diagonal 76 - Juan Martín Campos"},"geometry":{"type":"LineString","coordinates":[[-58.531337,-34.553169],[-58.530769,-34.552151]]}},{"type":"Feature","properties":{"id":417987879,"kind":"road","class":"tertiary","name":"Diagonal 31 - Mendoza","oneway":"yes"},"geometry":{"type":"LineString","coordinates":[[-58.531337,-34.553169],[-58.530405,-34.553161]]}},{"type":"Feature","properties":{"id":47087021,"kind":"road","class":"tertiary","name":"Diagonal 31 - Mendoza"},"geometry":{"type":"LineString","coordinates":[[-58.529825,-34.553276],[-58.528775,-34.553728]]}},{"type":"Feature","properties":{"id":47088470,"kind":"road","class":"secondary","name":"Diagonal 76 - Juan Martín Campos","oneway":"no"},"geometry":{"type":"LineString","coordinates":[[-58.530187,-34.551143],[-58.529605,-34.550134]]}},{"type":"Feature","properties":{"id":1051407952,"kind":"road","class":"secondary","name":"Diagonal 76 - Juan Martín Campos","oneway":"no"},"geometry":{"type":"LineString","coordinates":[[-58.529605,-34.550134],[-58.529022,-34.549093]]}},{"type":"Feature","properties":{"id":26343844,"kind":"road","class":"tertiary","name":"Diagonal 62 - Sáenz Peña"},"geometry":{"type":"LineString","coordinates":[[-58.521085,-34.55527],[-58.522703,-34.556766]]}},{"type":"Feature","properties":{"id":47087224,"kind":"road","class":"tertiary","name":"Diagonal 31 - Mendoza"},"geometry":{"type":"LineString","coordinates":[[-58.52349,-34.555803],[-58.521135,-34.555211]]}},{"type":"Feature","properties":{"id":292492011,"kind":"road","class":"secondary","name":"1 - Avenida de los Constituyentes (GSM) / Avenida de los Constituyentes (VL)"},"geometry":{"type":"LineString","coordinates":[[-58.520733,-34.555722],[-58.520506,-34.556017]]}},{"type":"Feature","properties":{"id":292492012,"kind":"road","class":"secondary","name":"1 - Avenida de los Constituyentes (GSM) / Avenida de los Constituyentes (VL)"},"geometry":{"type":"LineString","coordinates":[[-58.521085,-34.55527],[-58.520733,-34.555722]]}},{"type":"Feature","properties":{"id":1055868959,"kind":"road","class":"tertiary","name":"Diagonal 62 - Sáenz Peña"},"geometry":{"type":"LineString","coordinates":[[-58.522703,-34.556766],[-58.523515,-34.557498]]}},{"type":"Feature","properties":{"id":1285044567,"kind":"road","class":"secondary","name":"1 - Avenida de los Constituyentes (GSM) / Avenida de los Constituyentes (VL)"},"geometry":{"type":"LineString","coordinates":[[-58.520506,-34.556017],[-58.519541,-34.557372]]}},{"type":"Feature","properties":{"id":1285063516,"kind":"road","class":"secondary","name":"Francisco Narciso de Laprida","oneway":"no"},"geometry":{"type":"LineString","coordinates":[[-58.517537,-34.554088],[-58.518367,-34.5545]]}},{"type":"Feature","properties":{"id":1285063517,"kind":"road","class":"secondary","name":"Francisco Narciso de Laprida","oneway":"no"},"geometry":{"type":"LineString","coordinates":[[-58.51858,-34.554614],[-58.520733,-34.555722]]}},{"type":"Feature","properties":{"id":1285063518,"kind":"road","class":"secondary","name":"Francisco Narciso de Laprida","oneway":"no"},"geometry":{"type":"LineString","coordinates":[[-58.518367,-34.5545],[-58.51858,-34.554614]]}},{"type":"Feature","properties":{"id":308167170,"kind":"road","class":"secondary","name":"Francisco Narciso de Laprida","oneway":"no"},"geometry":{"type":"LineString","coordinates":[[-58.516813,-34.553705],[-58.517537,-34.554088]]}},{"type":"Feature","properties":{"id":1001935303,"kind":"rail","class":"rail"},"geometry":{"type":"LineString","coordinates":[[-58.513326,-34.556581],[-58.514075,-34.556396],[-58.514645,-34.556465],[-58.518,-34.557834]]}},{"type":"Feature","properties":{"id":1285055537,"kind":"road","class":"secondary","name":"Francisco Narciso de Laprida","oneway":"no"},"geometry":{"type":"LineString","coordinates":[[-58.508773,-34.550045],[-58.510824,-34.550967]]}},{"type":"Feature","properties":{"id":307525972,"kind":"road","class":"secondary","name":"Francisco Narciso de Laprida","oneway":"no"},"geometry":{"type":"LineString","coordinates":[[-58.51319,-34.552053],[-58.513724,-34.552296]]}},{"type":"Feature","properties":{"id":311489417,"kind":"road","class":"secondary","name":"Francisco Narciso de Laprida","oneway":"no"},"geometry":{"type":"LineString","coordinates":[[-58.513724,-34.552296],[-58.514284,-34.55256]]}},{"type":"Feature","properties":{"id":311682212,"kind":"road","class":"secondary","name":"Francisco Narciso de Laprida","oneway":"no"},"geometry":{"type":"LineString","coordinates":[[-58.513013,-34.551971],[-58.51319,-34.552053]]}},{"type":"Feature","properties":{"id":640337083,"kind":"road","class":"secondary","name":"Francisco Narciso de Laprida","oneway":"no"},"geometry":{"type":"LineString","coordinates":[[-58.514284,-34.55256],[-58.516813,-34.553705]]}},{"type":"Feature","properties":{"id":1285055521,"kind":"road","class":"secondary","name":"Francisco Narciso de Laprida","oneway":"no"},"geometry":{"type":"LineString","coordinates":[[-58.511016,-34.551053],[-58.511626,-34.551333]]}},{"type":"Feature","properties":{"id":1285055522,"kind":"road","class":"secondary","name":"Francisco Narciso de Laprida","oneway":"no"},"geometry":{"type":"LineString","coordinates":[[-58.510824,-34.550967],[-58.511016,-34.551053]]}},{"type":"Feature","properties":{"id":1285055523,"kind":"road","class":"secondary","name":"Francisco Narciso de Laprida","oneway":"no"},"geometry":{"type":"LineString","coordinates":[[-58.511626,-34.551333],[-58.512103,-34.551558]]}},{"type":"Feature","properties":{"id":1285055524,"kind":"road","class":"secondary","name":"Francisco Narciso de Laprida","oneway":"no"},"geometry":{"type":"LineString","coordinates":[[-58.512103,-34.551558],[-58.512288,-34.551637]]}},{"type":"Feature","properties":{"id":1285063515,"kind":"road","class":"secondary","name":"Francisco Narciso de Laprida","oneway":"no"},"geometry":{"type":"LineString","coordinates":[[-58.512288,-34.551637],[-58.513013,-34.551971]]}},{"type":"Feature","properties":{"id":1329741349,"kind":"road","class":"tertiary","name":"23 - 4 de Febrero"},"geometry":{"type":"LineString","coordinates":[[-58.534961,-34.544581],[-58.533864,-34.545412]]}},{"type":"Feature","properties":{"id":28306368,"kind":"road","class":"secondary","name":"90 - Martín Miguel de Güemes (SM) / Presidente Hipólito Yrigoyen (VL)","oneway":"no"},"geometry":{"type":"LineString","coordinates":[[-58.529089,-34.542365],[-58.527673,-34.541709]]}},{"type":"Feature","properties":{"id":47081309,"kind":"road","class":"secondary","name":"1 - Avenida de los Constituyentes (GSM) / Avenida de los Constituyentes (VL)"},"geometry":{"type":"LineString","coordinates":[[-58.529089,-34.542365],[-58.526812,-34.544833]]}},{"type":"Feature","properties":{"id":47413196,"kind":"road","class":"secondary","name":"Diagonal 76 - Juan Martín Campos","oneway":"no"},"geometry":{"type":"LineString","coordinates":[[-58.527499,-34.54644],[-58.526751,-34.545147]]}},{"type":"Feature","properties":{"id":172817251,"kind":"road","class":"secondary","name":"Avenida 1 - Sir Alexander Fleming","oneway":"no"},"geometry":{"type":"LineString","coordinates":[[-58.527519,-34.541634],[-58.527887,-34.540936]]}},{"type":"Feature","properties":{"id":420136579,"kind":"road","class":"tertiary","name":"General José de San Martín","oneway":"yes"},"geometry":{"type":"LineString","coordinates":[[-58.526503,-34.544994],[-58.525663,-34.544561]]}},{"type":"Feature","properties":{"id":420136590,"kind":"road","class":"secondary","name":"90 - Martín Miguel de Güemes (SM) / Presidente Hipólito Yrigoyen (VL)","oneway":"no"},"geometry":{"type":"LineString","coordinates":[[-58.527673,-34.541709],[-58.527519,-34.541634]]}},{"type":"Feature","properties":{"id":1329642453,"kind":"road","class":"secondary","name":"Diagonal 76 - Juan Martín Campos","oneway":"no"},"geometry":{"type":"LineString","coordinates":[[-58.526751,-34.545147],[-58.526615,-34.545054]]}},{"type":"Feature","properties":{"id":1329642454,"kind":"road","class":"tertiary","name":"General José de San Martín","oneway":"yes"},"geometry":{"type":"LineString","coordinates":[[-58.526615,-34.545054],[-58.526503,-34.544994]]}},{"type":"Feature","properties":{"id":1329642455,"kind":"road","class":"secondary","name":"1 - Avenida de los Constituyentes (GSM) / Avenida de los Constituyentes (VL)"},"geometry":{"type":"LineString","coordinates":[[-58.526812,-34.544833],[-58.526615,-34.545054]]}},{"type":"Feature","properties":{"id":47081288,"kind":"road","class":"tertiary","name":"Presidente Hipólito Yrigoyen","oneway":"yes"},"geometry":{"type":"LineString","coordinates":[[-58.525192,-34.540528],[-58.527519,-34.541634]]}},{"type":"Feature","properties":{"id":77190890,"kind":"road","class":"tertiary","name":"General José de San Martín","oneway":"yes"},"geometry":{"type":"LineString","coordinates":[[-58.525663,-34.544561],[-58.523246,-34.543327]]}},{"type":"Feature","properties":{"id":81539575,"kind":"road","class":"secondary","name":"100 - Entre Ríos","oneway":"no"},"geometry":{"type":"LineString","coordinates":[[-58.533582,-34.539691],[-58.534167,-34.540299]]}},{"type":"Feature","properties":{"id":81801711,"kind":"road","class":"tertiary","name":"Presidente Hipólito Yrigoyen","oneway":"yes"},"geometry":{"type":"LineString","coordinates":[[-58.522703,-34.53931],[-58.524643,-34.540269]]}},{"type":"Feature","properties":{"id":84268588,"kind":"road","class":"tertiary","name":"Carlos Villate","oneway":"yes"},"geometry":{"type":"LineString","coordinates":[[-58.528039,-34.535541],[-58.522719,-34.532925]]}},{"type":"Feature","properties":{"id":84268614,"kind":"road","class":"secondary","name":"Sir Alexander Fleming","oneway":"no"},"geometry":{"type":"LineString","coordinates":[[-58.529812,-34.537315],[-58.530217,-34.536613]]}},{"type":"Feature","properties":{"id":84503729,"kind":"road","class":"secondary","name":"Avenida Vélez Sarsfield"},"geometry":{"type":"LineString","coordinates":[[-58.534839,-34.534978],[-58.531641,-34.533791]]}},{"type":"Feature","properties":{"id":84503736,"kind":"road","class":"secondary","name":"100 - Entre Ríos","oneway":"no"},"geometry":{"type":"LineString","coordinates":[[-58.529812,-34.537315],[-58.533325,-34.539534]]}},{"type":"Feature","properties":{"id":172876993,"kind":"road","class":"secondary","name":"Sir Alexander Fleming","oneway":"no"},"geometry":{"type":"LineString","coordinates":[[-58.530217,-34.536613],[-58.531641,-34.533791]]}},{"type":"Feature","properties":{"id":1051714083,"kind":"road","class":"secondary","name":"Avenida 1 - Sir Alexander Fleming","oneway":"no"},"geometry":{"type":"LineString","coordinates":[[-58.527887,-34.540936],[-58.528189,-34.540361]]}},{"type":"Feature","properties":{"id":1091650311,"kind":"road","class":"tertiary","name":"Carlos Villate","oneway":"yes"},"geometry":{"type":"LineString","coordinates":[[-58.530217,-34.536613],[-58.528039,-34.535541]]}},{"type":"Feature","properties":{"id":1329108144,"kind":"road","class":"secondary","name":"100 - Entre Ríos","oneway":"no"},"geometry":{"type":"LineString","coordinates":[[-58.533325,-34.539534],[-58.533459,-34.539616]]}},{"type":"Feature","properties":{"id":1329108145,"kind":"road","class":"secondary","name":"100 - Entre Ríos","oneway":"no"},"geometry":{"type":"LineString","coordinates":[[-58.533459,-34.539616],[-58.533582,-34.539691]]}},{"type":"Feature","properties":{"id":85099533,"kind":"road","class":"secondary","name":"Avenida 1 - Sir Alexander Fleming","oneway":"no"},"geometry":{"type":"LineString","coordinates":[[-58.528869,-34.539069],[-58.529533,-34.537816]]}},{"type":"Feature","properties":{"id":375751600,"kind":"road","class":"secondary","name":"Avenida 1 - Sir Alexander Fleming","oneway":"no"},"geometry":{"type":"LineString","coordinates":[[-58.529533,-34.537816],[-58.529812,-34.537315]]}},{"type":"Feature","properties":{"id":1011376456,"kind":"road","class":"tertiary","name":"Presidente Hipólito Yrigoyen","oneway":"yes"},"geometry":{"type":"LineString","coordinates":[[-58.524643,-34.540269],[-58.525192,-34.540528]]}},{"type":"Feature","properties":{"id":1011376458,"kind":"road","class":"secondary","name":"Avenida 1 - Sir Alexander Fleming","oneway":"no"},"geometry":{"type":"LineString","coordinates":[[-58.528189,-34.540361],[-58.528869,-34.539069]]}},{"type":"Feature","properties":{"id":83145259,"kind":"road","class":"tertiary","name":"General Julio Argentino Roca","oneway":"yes"},"geometry":{"type":"LineString","coordinates":[[-58.519098,-34.544454],[-58.519329,-34.544558]]}},{"type":"Feature","properties":{"id":83145272,"kind":"road","class":"tertiary","name":"General Julio Argentino Roca","oneway":"yes"},"geometry":{"type":"LineString","coordinates":[[-58.519991,-34.544866],[-58.52166,-34.545653]]}},{"type":"Feature","properties":{"id":420136582,"kind":"road","class":"tertiary","name":"General José de San Martín","oneway":"yes"},"geometry":{"type":"LineString","coordinates":[[-58.523246,-34.543327],[-58.520844,-34.542114]]}},{"type":"Feature","properties":{"id":420136595,"kind":"road","class":"tertiary","name":"General Julio Argentino Roca","oneway":"yes"},"geometry":{"type":"LineString","coordinates":[[-58.519329,-34.544558],[-58.519991,-34.544866]]}},{"type":"Feature","properties":{"id":46607710,"kind":"road","class":"tertiary","name":"General Julio Argentino Roca","oneway":"yes"},"geometry":{"type":"LineString","coordinates":[[-58.51328,-34.541669],[-58.514478,-34.542227]]}},{"type":"Feature","properties":{"id":375751593,"kind":"road","class":"tertiary","name":"General Julio Argentino Roca","oneway":"yes"},"geometry":{"type":"LineString","coordinates":[[-58.512089,-34.541103],[-58.51328,-34.541669]]}},{"type":"Feature","properties":{"id":661072440,"kind":"road","class":"tertiary","name":"Carlos Francisco Melo","oneway":"yes"},"geometry":{"type":"LineString","coordinates":[[-58.515071,-34.545941],[-58.511467,-34.544247]]}},{"type":"Feature","properties":{"id":661072441,"kind":"road","class":"tertiary","name":"General Julio Argentino Roca","oneway":"yes"},"geometry":{"type":"LineString","coordinates":[[-58.514478,-34.542227],[-58.516879,-34.543379]]}},{"type":"Feature","properties":{"id":81801703,"kind":"road","class":"tertiary","name":"Presidente Hipólito Yrigoyen","oneway":"yes"},"geometry":{"type":"LineString","coordinates":[[-58.515652,-34.535799],[-58.520396,-34.538168]]}},{"type":"Feature","properties":{"id":84194560,"kind":"road","class":"tertiary","name":"Presidente Hipólito Yrigoyen","oneway":"yes"},"geometry":{"type":"LineString","coordinates":[[-58.511318,-34.533623],[-58.515487,-34.535717]]}},{"type":"Feature","properties":{"id":375751581,"kind":"road","class":"tertiary","name":"General José de San Martín","oneway":"yes"},"geometry":{"type":"LineString","coordinates":[[-58.520844,-34.542114],[-58.51383,-34.538634]]}},{"type":"Feature","properties":{"id":375751594,"kind":"road","class":"tertiary","name":"General Julio Argentino Roca","oneway":"yes"},"geometry":{"type":"LineString","coordinates":[[-58.516879,-34.543379],[-58.519098,-34.544454]]}},{"type":"Feature","properties":{"id":462436200,"kind":"road","class":"tertiary","name":"Carlos Francisco Melo","oneway":"yes"},"geometry":{"type":"LineString","coordinates":[[-58.511467,-34.544247],[-58.5091,-34.543118]]}},{"type":"Feature","properties":{"id":602335065,"kind":"road","class":"tertiary","name":"General Julio Argentino Roca","oneway":"yes"},"geometry":{"type":"LineString","coordinates":[[-58.509038,-34.539672],[-58.512089,-34.541103]]}},{"type":"Feature","properties":{"id":605458014,"kind":"road","class":"tertiary","name":"General José de San Martín","oneway":"yes"},"geometry":{"type":"LineString","coordinates":[[-58.511716,-34.537596],[-58.508495,-34.536035]]}},{"type":"Feature","properties":{"id":375751592,"kind":"road","class":"tertiary","name":"Presidente Hipólito Yrigoyen","oneway":"yes"},"geometry":{"type":"LineString","coordinates":[[-58.520396,-34.538168],[-58.522703,-34.53931]]}},{"type":"Feature","properties":{"id":375751580,"kind":"road","class":"tertiary","name":"General José de San Martín","oneway":"yes"},"geometry":{"type":"LineString","coordinates":[[-58.512136,-34.537799],[-58.511716,-34.537596]]}},{"type":"Feature","properties":{"id":605458013,"kind":"road","class":"tertiary","name":"General José de San Martín","oneway":"yes"},"geometry":{"type":"LineString","coordinates":[[-58.51383,-34.538634],[-58.512136,-34.537799]]}},{"type":"Feature","properties":{"id":970650763,"kind":"road","class":"tertiary","name":"Presidente Hipólito Yrigoyen","oneway":"yes"},"geometry":{"type":"LineString","coordinates":[[-58.515487,-34.535717],[-58.515652,-34.535799]]}},{"type":"Feature","properties":{"id":1044273848,"kind":"rail","class":"rail"},"geometry":{"type":"LineString","coordinates":[[-58.514751,-34.536312],[-58.514176,-34.536559]]}},{"type":"Feature","properties":{"id":84503741,"kind":"road","class":"tertiary","name":"Carlos María de Calvo","oneway":"no"},"geometry":{"type":"LineString","coordinates":[[-58.531219,-34.529753],[-58.531117,-34.530701]]}},{"type":"Feature","properties":{"id":86141597,"kind":"road","class":"tertiary","name":"Carlos María de Calvo","oneway":"no"},"geometry":{"type":"LineString","coordinates":[[-58.53125,-34.529432],[-58.531396,-34.528106]]}},{"type":"Feature","properties":{"id":172822135,"kind":"road","class":"tertiary","name":"Carlos María de Calvo","oneway":"no"},"geometry":{"type":"LineString","coordinates":[[-58.530973,-34.532156],[-58.530762,-34.533636]]}},{"type":"Feature","properties":{"id":354333776,"kind":"road","class":"secondary","name":"Avenida Vélez Sarsfield"},"geometry":{"type":"LineString","coordinates":[[-58.531641,-34.533791],[-58.530762,-34.533636]]}},{"type":"Feature","properties":{"id":375751573,"kind":"road","class":"tertiary","name":"Carlos María de Calvo","oneway":"no"},"geometry":{"type":"LineString","coordinates":[[-58.53102,-34.531642],[-58.530973,-34.532156]]}},{"type":"Feature","properties":{"id":606905002,"kind":"road","class":"tertiary","name":"Carlos María de Calvo","oneway":"no"},"geometry":{"type":"LineString","coordinates":[[-58.53125,-34.529432],[-58.531219,-34.529753]]}},{"type":"Feature","properties":{"id":1327351261,"kind":"road","class":"tertiary","name":"Carlos María de Calvo","oneway":"no"},"geometry":{"type":"LineString","coordinates":[[-58.531117,-34.530701],[-58.53102,-34.531642]]}},{"type":"Feature","properties":{"id":46607688,"kind":"road","class":"tertiary","name":"Sargento Bautista Baigorria","oneway":"yes"},"geometry":{"type":"LineString","coordinates":[[-58.524169,-34.532029],[-58.525761,-34.531223]]}},{"type":"Feature","properties":{"id":48664857,"kind":"road","class":"secondary","name":"Avenida Vélez Sarsfield","oneway":"yes"},"geometry":{"type":"LineString","coordinates":[[-58.524609,-34.530662],[-58.524869,-34.530789]]}},{"type":"Feature","properties":{"id":255851765,"kind":"road","class":"secondary","name":"Avenida Vélez Sarsfield","oneway":"yes"},"geometry":{"type":"LineString","coordinates":[[-58.525761,-34.531223],[-58.529718,-34.533143]]}},{"type":"Feature","properties":{"id":259249956,"kind":"road","class":"secondary","name":"Avenida Vélez Sarsfield","oneway":"yes"},"geometry":{"type":"LineString","coordinates":[[-58.524869,-34.530789],[-58.525761,-34.531223]]}},{"type":"Feature","properties":{"id":1044273843,"kind":"rail","class":"rail"},"geometry":{"type":"LineString","coordinates":[[-58.528928,-34.529915],[-58.528369,-34.530031]]}},{"type":"Feature","properties":{"id":84268605,"kind":"road","class":"tertiary","name":"Sargento Bautista Baigorria","oneway":"yes"},"geometry":{"type":"LineString","coordinates":[[-58.522719,-34.532925],[-58.522748,-34.532756],[-58.524169,-34.532029]]}},{"type":"Feature","properties":{"id":172875820,"kind":"road","class":"tertiary","name":"Carlos María de Calvo","oneway":"no"},"geometry":{"type":"LineString","coordinates":[[-58.531396,-34.528106],[-58.531401,-34.527149]]}},{"type":"Feature","properties":{"id":267777382,"kind":"road","class":"secondary","name":"Avenida Vélez Sarsfield","oneway":"yes"},"geometry":{"type":"LineString","coordinates":[[-58.523336,-34.530016],[-58.524609,-34.530662]]}},{"type":"Feature","properties":{"id":674012390,"kind":"rail","class":"rail","ref":"CC"},"geometry":{"type":"LineString","coordinates":[[-58.52108,-34.533141],[-58.524722,-34.531341],[-58.525555,-34.530828]]}},{"type":"Feature","properties":{"id":982102201,"kind":"road","class":"secondary","name":"Avenida Vélez Sarsfield","oneway":"yes"},"geometry":{"type":"LineString","coordinates":[[-58.529718,-34.533143],[-58.530762,-34.533636]]}},{"type":"Feature","properties":{"id":48069285,"kind":"road","class":"tertiary","name":"Sargento Bautista Baigorria","oneway":"no"},"geometry":{"type":"LineString","coordinates":[[-58.523245,-34.531603],[-58.521714,-34.532431]]}},{"type":"Feature","properties":{"id":84268615,"kind":"road","class":"tertiary","name":"Carlos Villate","oneway":"yes"},"geometry":{"type":"LineString","coordinates":[[-58.522287,-34.532706],[-58.521587,-34.532364]]}},{"type":"Feature","properties":{"id":466224863,"kind":"road","class":"tertiary","name":"Carlos Villate","oneway":"yes"},"geometry":{"type":"LineString","coordinates":[[-58.522719,-34.532925],[-58.522546,-34.532836]]}},{"type":"Feature","properties":{"id":466224867,"kind":"road","class":"tertiary","name":"Carlos Villate","oneway":"yes"},"geometry":{"type":"LineString","coordinates":[[-58.521587,-34.532364],[-58.520567,-34.531877]]}},{"type":"Feature","properties":{"id":466224872,"kind":"road","class":"secondary","name":"Avenida Vélez Sarsfield","oneway":"yes"},"geometry":{"type":"LineString","coordinates":[[-58.52229,-34.52948],[-58.52306,-34.52988]]}},{"type":"Feature","properties":{"id":674012396,"kind":"rail","class":"rail"},"geometry":{"type":"LineString","coordinates":[[-58.521764,-34.532748],[-58.521366,-34.5329]]}},{"type":"Feature","properties":{"id":674012398,"kind":"road","class":"tertiary","name":"Tunel Munro","oneway":"yes"},"geometry":{"type":"LineString","coordinates":[[-58.522972,-34.532257],[-58.523035,-34.532443],[-58.522646,-34.532666]]}},{"type":"Feature","properties":{"id":674012399,"kind":"road","class":"tertiary","name":"Tunel Munro","oneway":"yes"},"geometry":{"type":"LineString","coordinates":[[-58.522842,-34.532083],[-58.522972,-34.532257]]}},{"type":"Feature","properties":{"id":674012400,"kind":"road","class":"tertiary","name":"Tunel Munro","oneway":"yes"},"geometry":{"type":"LineString","coordinates":[[-58.523232,-34.531777],[-58.52289,-34.53195],[-58.522842,-34.532083]]}},{"type":"Feature","properties":{"id":766365877,"kind":"road","class":"tertiary","name":"Carlos Villate","oneway":"yes"},"geometry":{"type":"LineString","coordinates":[[-58.522546,-34.532836],[-58.522287,-34.532706]]}},{"type":"Feature","properties":{"id":951877174,"kind":"road","class":"tertiary","name":"Tunel Munro","oneway":"yes"},"geometry":{"type":"LineString","coordinates":[[-58.522546,-34.532836],[-58.522601,-34.532636]]}},{"type":"Feature","properties":{"id":951877176,"kind":"road","class":"tertiary","name":"Tunel Munro","oneway":"yes"},"geometry":{"type":"LineString","coordinates":[[-58.522793,-34.532113],[-58.522777,-34.531963],[-58.523176,-34.531755]]}},{"type":"Feature","properties":{"id":951877177,"kind":"road","class":"tertiary","name":"Tunel Munro","oneway":"yes"},"geometry":{"type":"LineString","coordinates":[[-58.522916,-34.532289],[-58.522793,-34.532113]]}},{"type":"Feature","properties":{"id":951877178,"kind":"road","class":"tertiary","name":"Tunel Munro","oneway":"yes"},"geometry":{"type":"LineString","coordinates":[[-58.523176,-34.531755],[-58.523245,-34.531603]]}},{"type":"Feature","properties":{"id":951877179,"kind":"road","class":"tertiary","name":"Tunel Munro","oneway":"yes"},"geometry":{"type":"LineString","coordinates":[[-58.522601,-34.532636],[-58.522919,-34.532478],[-58.522916,-34.532289]]}},{"type":"Feature","properties":{"id":951877180,"kind":"road","class":"tertiary","name":"Tunel Munro","oneway":"yes"},"geometry":{"type":"LineString","coordinates":[[-58.523245,-34.531603],[-58.523232,-34.531777]]}},{"type":"Feature","properties":{"id":951877181,"kind":"road","class":"tertiary","name":"Tunel Munro","oneway":"yes"},"geometry":{"type":"LineString","coordinates":[[-58.522646,-34.532666],[-58.522656,-34.532777],[-58.522748,-34.532756]]}},{"type":"Feature","properties":{"id":960929377,"kind":"road","class":"secondary","name":"Avenida Vélez Sarsfield","oneway":"yes"},"geometry":{"type":"LineString","coordinates":[[-58.52306,-34.52988],[-58.523336,-34.530016]]}},{"type":"Feature","properties":{"id":86134724,"kind":"road","class":"secondary","name":"Avenida Bartolomé Mitre","oneway":"yes"},"geometry":{"type":"LineString","coordinates":[[-58.515381,-34.53016],[-58.516081,-34.529679]]}},{"type":"Feature","properties":{"id":86134737,"kind":"road","class":"secondary","name":"Avenida Bartolomé Mitre"},"geometry":{"type":"LineString","coordinates":[[-58.513354,-34.531568],[-58.512598,-34.531909]]}},{"type":"Feature","properties":{"id":466529190,"kind":"road","class":"secondary","name":"Avenida Bartolomé Mitre","oneway":"yes"},"geometry":{"type":"LineString","coordinates":[[-58.516081,-34.529679],[-58.516524,-34.529113]]}},{"type":"Feature","properties":{"id":950258677,"kind":"road","class":"secondary","name":"Avenida Bartolomé Mitre","oneway":"yes"},"geometry":{"type":"LineString","coordinates":[[-58.516149,-34.529714],[-58.515458,-34.5302]]}},{"type":"Feature","properties":{"id":950258679,"kind":"road","class":"tertiary","name":"Carlos Villate","oneway":"no"},"geometry":{"type":"LineString","coordinates":[[-58.516081,-34.529679],[-58.516149,-34.529714]]}},{"type":"Feature","properties":{"id":954761967,"kind":"road","class":"secondary","name":"Avenida Bartolomé Mitre","oneway":"yes"},"geometry":{"type":"LineString","coordinates":[[-58.517048,-34.528539],[-58.51659,-34.529145]]}},{"type":"Feature","properties":{"id":957693843,"kind":"road","class":"secondary","name":"Avenida Bartolomé Mitre"},"geometry":{"type":"LineString","coordinates":[[-58.511739,-34.532298],[-58.510912,-34.532668]]}},{"type":"Feature","properties":{"id":958723521,"kind":"road","class":"secondary","name":"Avenida Bartolomé Mitre","oneway":"yes"},"geometry":{"type":"LineString","coordinates":[[-58.51659,-34.529145],[-58.516149,-34.529714]]}},{"type":"Feature","properties":{"id":958723522,"kind":"road","class":"secondary","name":"Avenida Bartolomé Mitre","oneway":"yes"},"geometry":{"type":"LineString","coordinates":[[-58.516524,-34.529113],[-58.516685,-34.52889]]}},{"type":"Feature","properties":{"id":958723523,"kind":"road","class":"secondary","name":"Avenida Bartolomé Mitre","oneway":"yes"},"geometry":{"type":"LineString","coordinates":[[-58.516685,-34.52889],[-58.516984,-34.528508]]}},{"type":"Feature","properties":{"id":970704605,"kind":"road","class":"secondary","name":"Avenida Bartolomé Mitre"},"geometry":{"type":"LineString","coordinates":[[-58.512598,-34.531909],[-58.511739,-34.532298]]}},{"type":"Feature","properties":{"id":1089675662,"kind":"road","class":"secondary","name":"Avenida Bartolomé Mitre","oneway":"yes"},"geometry":{"type":"LineString","coordinates":[[-58.513375,-34.531518],[-58.514741,-34.530607]]}},{"type":"Feature","properties":{"id":1089675663,"kind":"road","class":"secondary","name":"Avenida Bartolomé Mitre","oneway":"yes"},"geometry":{"type":"LineString","coordinates":[[-58.514883,-34.5306],[-58.514824,-34.530647]]}},{"type":"Feature","properties":{"id":1089676734,"kind":"road","class":"tertiary","name":"Antonio Malaver","oneway":"yes"},"geometry":{"type":"LineString","coordinates":[[-58.513466,-34.531563],[-58.513415,-34.53154]]}},{"type":"Feature","properties":{"id":1089676735,"kind":"road","class":"secondary","name":"Avenida Bartolomé Mitre","oneway":"yes"},"geometry":{"type":"LineString","coordinates":[[-58.513466,-34.531563],[-58.513354,-34.531568]]}},{"type":"Feature","properties":{"id":1089676737,"kind":"road","class":"secondary","name":"Avenida Bartolomé Mitre","oneway":"yes"},"geometry":{"type":"LineString","coordinates":[[-58.514741,-34.530607],[-58.514812,-34.53056]]}},{"type":"Feature","properties":{"id":1089676739,"kind":"road","class":"secondary","name":"Avenida Bartolomé Mitre","oneway":"yes"},"geometry":{"type":"LineString","coordinates":[[-58.514824,-34.530647],[-58.513466,-34.531563]]}},{"type":"Feature","properties":{"id":1291939209,"kind":"road","class":"tertiary","name":"Antonio Malaver","oneway":"yes"},"geometry":{"type":"LineString","coordinates":[[-58.513415,-34.53154],[-58.513375,-34.531518]]}},{"type":"Feature","properties":{"id":1291939210,"kind":"road","class":"secondary","name":"Avenida Bartolomé Mitre","oneway":"yes"},"geometry":{"type":"LineString","coordinates":[[-58.513354,-34.531568],[-58.513375,-34.531518]]}},{"type":"Feature","properties":{"id":1291939230,"kind":"road","class":"secondary","name":"Avenida Bartolomé Mitre","oneway":"yes"},"geometry":{"type":"LineString","coordinates":[[-58.514812,-34.53056],[-58.515381,-34.53016]]}},{"type":"Feature","properties":{"id":1292038747,"kind":"road","class":"secondary","name":"Avenida Bartolomé Mitre","oneway":"yes"},"geometry":{"type":"LineString","coordinates":[[-58.515458,-34.5302],[-58.514883,-34.5306]]}},{"type":"Feature","properties":{"id":60941282,"kind":"road","class":"tertiary","name":"Antonio Malaver","oneway":"yes"},"geometry":{"type":"LineString","coordinates":[[-58.513375,-34.531518],[-58.507632,-34.528691]]}},{"type":"Feature","properties":{"id":82805236,"kind":"road","class":"tertiary","name":"Esteban Echeverría","oneway":"yes"},"geometry":{"type":"LineString","coordinates":[[-58.509119,-34.527025],[-58.508299,-34.528198]]}},{"type":"Feature","properties":{"id":84194544,"kind":"road","class":"tertiary","name":"Presidente Hipólito Yrigoyen","oneway":"yes"},"geometry":{"type":"LineString","coordinates":[[-58.510082,-34.533031],[-58.511318,-34.533623]]}},{"type":"Feature","properties":{"id":84268594,"kind":"road","class":"secondary","name":"Avenida Vélez Sarsfield","oneway":"yes"},"geometry":{"type":"LineString","coordinates":[[-58.517991,-34.527314],[-58.52229,-34.52948]]}},{"type":"Feature","properties":{"id":172814969,"kind":"road","class":"secondary","name":"Avenida Bartolomé Mitre","oneway":"yes"},"geometry":{"type":"LineString","coordinates":[[-58.517491,-34.527946],[-58.517048,-34.528539]]}},{"type":"Feature","properties":{"id":173061917,"kind":"road","class":"tertiary","name":"Carlos Villate","oneway":"yes"},"geometry":{"type":"LineString","coordinates":[[-58.520567,-34.531877],[-58.516149,-34.529714]]}},{"type":"Feature","properties":{"id":370267927,"kind":"road","class":"tertiary","name":"Carlos Villate","oneway":"yes"},"geometry":{"type":"LineString","coordinates":[[-58.510711,-34.527052],[-58.516081,-34.529679]]}},{"type":"Feature","properties":{"id":466529192,"kind":"road","class":"secondary","name":"Avenida Bartolomé Mitre","oneway":"yes"},"geometry":{"type":"LineString","coordinates":[[-58.516984,-34.528508],[-58.517429,-34.527915]]}},{"type":"Feature","properties":{"id":970709605,"kind":"road","class":"secondary","name":"Avenida Bartolomé Mitre"},"geometry":{"type":"LineString","coordinates":[[-58.510912,-34.532668],[-58.510082,-34.533031]]}},{"type":"Feature","properties":{"id":298463831,"kind":"road","class":"motorway","name":"Avenida General Paz","ref":"RNA001","oneway":"yes"},"geometry":{"type":"LineString","coordinates":[[-58.50285,-34.555441],[-58.503788,-34.557429]]}},{"type":"Feature","properties":{"id":1114933083,"kind":"road","class":"tertiary","name":"Avenida General Paz","oneway":"yes"},"geometry":{"type":"LineString","coordinates":[[-58.503417,-34.557844],[-58.501298,-34.553271]]}},{"type":"Feature","properties":{"id":38509243,"kind":"road","class":"secondary","name":"Avenida Triunvirato","oneway":"yes"},"geometry":{"type":"LineString","coordinates":[[-58.496409,-34.556221],[-58.49673,-34.556445],[-58.496871,-34.556796],[-58.496828,-34.557012],[-58.496431,-34.557573]]}},{"type":"Feature","properties":{"id":28534020,"kind":"road","class":"motorway_link","oneway":"yes"},"geometry":{"type":"LineString","coordinates":[[-58.50285,-34.555441],[-58.503574,-34.556479]]}},{"type":"Feature","properties":{"id":405237624,"kind":"road","class":"motorway","name":"Avenida General Paz","ref":"RNA001","oneway":"yes"},"geometry":{"type":"LineString","coordinates":[[-58.502331,-34.554328],[-58.502704,-34.555129]]}},{"type":"Feature","properties":{"id":405237625,"kind":"road","class":"motorway","name":"Avenida General Paz","ref":"RNA001","oneway":"yes"},"geometry":{"type":"LineString","coordinates":[[-58.502704,-34.555129],[-58.50285,-34.555441]]}},{"type":"Feature","properties":{"id":486275801,"kind":"road","class":"motorway","name":"Avenida General Paz","ref":"RNA001","oneway":"yes"},"geometry":{"type":"LineString","coordinates":[[-58.503614,-34.557427],[-58.50243,-34.554904]]}},{"type":"Feature","properties":{"id":23651412,"kind":"road","class":"motorway","name":"Avenida General Paz","ref":"RNA001","oneway":"yes"},"geometry":{"type":"LineString","coordinates":[[-58.497112,-34.548384],[-58.498393,-34.548975],[-58.499221,-34.549481],[-58.500043,-34.550191],[-58.500551,-34.550803]]}},{"type":"Feature","properties":{"id":26513080,"kind":"road","class":"secondary","name":"Francisco Narciso de Laprida","oneway":"no"},"geometry":{"type":"LineString","coordinates":[[-58.503424,-34.547624],[-58.503994,-34.547858]]}},{"type":"Feature","properties":{"id":28534021,"kind":"road","class":"motorway_link","oneway":"yes"},"geometry":{"type":"LineString","coordinates":[[-58.50243,-34.554904],[-58.501298,-34.553271]]}},{"type":"Feature","properties":{"id":82692932,"kind":"road","class":"tertiary","name":"Juan Bautista de La Salle","oneway":"yes"},"geometry":{"type":"LineString","coordinates":[[-58.501221,-34.550627],[-58.501882,-34.551931],[-58.502098,-34.552903],[-58.504022,-34.557065]]}},{"type":"Feature","properties":{"id":288856258,"kind":"road","class":"motorway","name":"Avenida General Paz","oneway":"yes"},"geometry":{"type":"LineString","coordinates":[[-58.498341,-34.549291],[-58.496947,-34.54855]]}},{"type":"Feature","properties":{"id":288856943,"kind":"road","class":"motorway","name":"Avenida General Paz","ref":"RNA001","oneway":"yes"},"geometry":{"type":"LineString","coordinates":[[-58.500129,-34.550517],[-58.499716,-34.550035],[-58.499104,-34.549537],[-58.497379,-34.548622]]}},{"type":"Feature","properties":{"id":290774522,"kind":"road","class":"motorway_link","oneway":"yes"},"geometry":{"type":"LineString","coordinates":[[-58.498833,-34.549453],[-58.497379,-34.548622]]}},{"type":"Feature","properties":{"id":298729193,"kind":"road","class":"tertiary","name":"Juan Zufriategui","oneway":"no"},"geometry":{"type":"LineString","coordinates":[[-58.495687,-34.547177],[-58.497564,-34.548087]]}},{"type":"Feature","properties":{"id":303130487,"kind":"road","class":"motorway","name":"Avenida General Paz","ref":"RNA001","oneway":"yes"},"geometry":{"type":"LineString","coordinates":[[-58.50243,-34.554904],[-58.500805,-34.551495],[-58.500129,-34.550517]]}},{"type":"Feature","properties":{"id":303412730,"kind":"road","class":"motorway_link","oneway":"yes"},"geometry":{"type":"LineString","coordinates":[[-58.497191,-34.548223],[-58.497942,-34.548579]]}},{"type":"Feature","properties":{"id":307250071,"kind":"road","class":"secondary","name":"Avenida Doctor Ricardo Balbín","oneway":"yes"},"geometry":{"type":"LineString","coordinates":[[-58.497887,-34.553495],[-58.49651,-34.555174]]}},{"type":"Feature","properties":{"id":317526836,"kind":"road","class":"motorway","name":"Avenida General Paz","ref":"RNA001","oneway":"yes"},"geometry":{"type":"LineString","coordinates":[[-58.502017,-34.55368],[-58.502331,-34.554328]]}},{"type":"Feature","properties":{"id":417441955,"kind":"road","class":"secondary_link","oneway":"yes"},"geometry":{"type":"LineString","coordinates":[[-58.497373,-34.553495],[-58.4976,-34.553539],[-58.497719,-34.553707]]}},{"type":"Feature","properties":{"id":571155559,"kind":"road","class":"motorway_link","oneway":"yes"},"geometry":{"type":"LineString","coordinates":[[-58.503574,-34.556479],[-58.504022,-34.557065]]}},{"type":"Feature","properties":{"id":1018979839,"kind":"road","class":"secondary","name":"Francisco Narciso de Laprida","oneway":"no"},"geometry":{"type":"LineString","coordinates":[[-58.502335,-34.547124],[-58.502849,-34.547362]]}},{"type":"Feature","properties":{"id":1265418112,"kind":"road","class":"secondary","name":"Avenida Doctor Ricardo Balbín","oneway":"yes"},"geometry":{"type":"LineString","coordinates":[[-58.496201,-34.554912],[-58.497459,-34.553397]]}},{"type":"Feature","properties":{"id":1265418115,"kind":"road","class":"secondary","name":"Avenida Bartolomé Mitre","oneway":"no"},"geometry":{"type":"LineString","coordinates":[[-58.500036,-34.547196],[-58.500244,-34.548274]]}},{"type":"Feature","properties":{"id":466711192,"kind":"road","class":"secondary","name":"Francisco Narciso de Laprida","oneway":"no"},"geometry":{"type":"LineString","coordinates":[[-58.506181,-34.548854],[-58.506692,-34.549092]]}},{"type":"Feature","properties":{"id":1285055527,"kind":"road","class":"secondary","name":"Francisco Narciso de Laprida","oneway":"no"},"geometry":{"type":"LineString","coordinates":[[-58.503994,-34.547858],[-58.504514,-34.548097]]}},{"type":"Feature","properties":{"id":1285055529,"kind":"road","class":"secondary","name":"Francisco Narciso de Laprida","oneway":"no"},"geometry":{"type":"LineString","coordinates":[[-58.504514,-34.548097],[-58.50511,-34.548371]]}},{"type":"Feature","properties":{"id":1285055531,"kind":"road","class":"secondary","name":"Francisco Narciso de Laprida","oneway":"no"},"geometry":{"type":"LineString","coordinates":[[-58.505603,-34.548593],[-58.506181,-34.548854]]}},{"type":"Feature","properties":{"id":1285055532,"kind":"road","class":"secondary","name":"Francisco Narciso de Laprida","oneway":"no"},"geometry":{"type":"LineString","coordinates":[[-58.506692,-34.549092],[-58.507777,-34.549591]]}},{"type":"Feature","properties":{"id":1285055535,"kind":"road","class":"secondary","name":"Francisco Narciso de Laprida","oneway":"no"},"geometry":{"type":"LineString","coordinates":[[-58.507777,-34.549591],[-58.508773,-34.550045]]}},{"type":"Feature","properties":{"id":1329662950,"kind":"road","class":"secondary","name":"Francisco Narciso de Laprida","oneway":"no"},"geometry":{"type":"LineString","coordinates":[[-58.50511,-34.548371],[-58.505603,-34.548593]]}},{"type":"Feature","properties":{"id":22567466,"kind":"road","class":"secondary","name":"Avenida Doctor Ricardo Balbín","oneway":"yes"},"geometry":{"type":"LineString","coordinates":[[-58.499769,-34.550889],[-58.499055,-34.552035]]}},{"type":"Feature","properties":{"id":22567467,"kind":"road","class":"secondary_link","oneway":"yes"},"geometry":{"type":"LineString","coordinates":[[-58.498618,-34.551994],[-58.498961,-34.552167]]}},{"type":"Feature","properties":{"id":25899256,"kind":"road","class":"secondary_link","oneway":"yes"},"geometry":{"type":"LineString","coordinates":[[-58.500641,-34.552028],[-58.500273,-34.551789],[-58.49997,-34.551719],[-58.499604,-34.551777],[-58.499055,-34.552035]]}},{"type":"Feature","properties":{"id":25899258,"kind":"road","class":"secondary","name":"Avenida Doctor Ricardo Balbín","oneway":"yes"},"geometry":{"type":"LineString","coordinates":[[-58.500073,-34.550602],[-58.499769,-34.550889]]}},{"type":"Feature","properties":{"id":25899259,"kind":"road","class":"secondary","name":"Avenida Doctor Ricardo Balbín","oneway":"yes"},"geometry":{"type":"LineString","coordinates":[[-58.500379,-34.550327],[-58.500073,-34.550602]]}},{"type":"Feature","properties":{"id":26513143,"kind":"road","class":"tertiary","name":"Juan Bautista de La Salle","oneway":"yes"},"geometry":{"type":"LineString","coordinates":[[-58.500777,-34.549772],[-58.501221,-34.550627]]}},{"type":"Feature","properties":{"id":26547484,"kind":"road","class":"secondary_link","oneway":"yes"},"geometry":{"type":"LineString","coordinates":[[-58.500681,-34.549447],[-58.500833,-34.549392]]}},{"type":"Feature","properties":{"id":28534023,"kind":"road","class":"motorway_link","oneway":"yes"},"geometry":{"type":"LineString","coordinates":[[-58.501221,-34.550627],[-58.501652,-34.552556],[-58.502017,-34.55368]]}},{"type":"Feature","properties":{"id":47308106,"kind":"road","class":"secondary","name":"Avenida Doctor Ricardo Balbín","oneway":"yes"},"geometry":{"type":"LineString","coordinates":[[-58.499294,-34.551153],[-58.499653,-34.550758]]}},{"type":"Feature","properties":{"id":48069268,"kind":"road","class":"tertiary","name":"Avenida General Paz","oneway":"yes"},"geometry":{"type":"LineString","coordinates":[[-58.499769,-34.550889],[-58.499653,-34.550758]]}},{"type":"Feature","properties":{"id":81207013,"kind":"road","class":"motorway_link","oneway":"yes"},"geometry":{"type":"LineString","coordinates":[[-58.50041,-34.550117],[-58.500416,-34.54971],[-58.500168,-34.549438],[-58.499757,-34.549438],[-58.499692,-34.549551],[-58.499775,-34.54976]]}},{"type":"Feature","properties":{"id":81207021,"kind":"road","class":"secondary","name":"Avenida Doctor Ricardo Balbín","oneway":"yes"},"geometry":{"type":"LineString","coordinates":[[-58.499986,-34.550501],[-58.500284,-34.550241]]}},{"type":"Feature","properties":{"id":81207022,"kind":"road","class":"secondary","name":"Avenida Doctor Ricardo Balbín","oneway":"yes"},"geometry":{"type":"LineString","coordinates":[[-58.499653,-34.550758],[-58.499986,-34.550501]]}},{"type":"Feature","properties":{"id":81207025,"kind":"road","class":"secondary","name":"Avenida Bartolomé Mitre","oneway":"yes"},"geometry":{"type":"LineString","coordinates":[[-58.500379,-34.548734],[-58.500642,-34.549329]]}},{"type":"Feature","properties":{"id":81207027,"kind":"road","class":"secondary","name":"Avenida Doctor Ricardo Balbín","oneway":"yes"},"geometry":{"type":"LineString","coordinates":[[-58.500777,-34.549772],[-58.500379,-34.550327]]}},{"type":"Feature","properties":{"id":81231645,"kind":"road","class":"secondary_link","oneway":"yes"},"geometry":{"type":"LineString","coordinates":[[-58.501041,-34.549711],[-58.500885,-34.549708]]}},{"type":"Feature","properties":{"id":81244709,"kind":"road","class":"secondary","name":"Juan Bautista de La Salle","oneway":"yes"},"geometry":{"type":"LineString","coordinates":[[-58.500531,-34.54947],[-58.500639,-34.549609]]}},{"type":"Feature","properties":{"id":82692948,"kind":"road","class":"secondary","name":"Avenida Doctor Ricardo Balbín","oneway":"yes"},"geometry":{"type":"LineString","coordinates":[[-58.500284,-34.550241],[-58.500573,-34.549828]]}},{"type":"Feature","properties":{"id":82692963,"kind":"road","class":"secondary_link","oneway":"yes"},"geometry":{"type":"LineString","coordinates":[[-58.500531,-34.54947],[-58.500681,-34.549447]]}},{"type":"Feature","properties":{"id":82692969,"kind":"road","class":"tertiary","name":"Juan Zufriategui","oneway":"no"},"geometry":{"type":"LineString","coordinates":[[-58.497564,-34.548087],[-58.499167,-34.548839]]}},{"type":"Feature","properties":{"id":82692990,"kind":"road","class":"secondary","name":"Juan Bautista de La Salle","oneway":"yes"},"geometry":{"type":"LineString","coordinates":[[-58.500681,-34.549447],[-58.500777,-34.549772]]}},{"type":"Feature","properties":{"id":82692993,"kind":"road","class":"secondary","name":"Avenida Bartolomé Mitre","oneway":"yes"},"geometry":{"type":"LineString","coordinates":[[-58.500503,-34.549345],[-58.500379,-34.548734]]}},{"type":"Feature","properties":{"id":259238790,"kind":"road","class":"motorway_link","oneway":"yes"},"geometry":{"type":"LineString","coordinates":[[-58.499572,-34.550666],[-58.49925,-34.550108],[-58.498341,-34.549291]]}},{"type":"Feature","properties":{"id":268206173,"kind":"road","class":"motorway","name":"Avenida General Paz","oneway":"yes"},"geometry":{"type":"LineString","coordinates":[[-58.500129,-34.550517],[-58.499478,-34.549994],[-58.498341,-34.549291]]}},{"type":"Feature","properties":{"id":290774520,"kind":"road","class":"motorway_link","oneway":"yes"},"geometry":{"type":"LineString","coordinates":[[-58.49942,-34.549483],[-58.499775,-34.54976]]}},{"type":"Feature","properties":{"id":290778744,"kind":"road","class":"motorway_link","oneway":"yes"},"geometry":{"type":"LineString","coordinates":[[-58.499572,-34.550666],[-58.499578,-34.550374]]}},{"type":"Feature","properties":{"id":291271632,"kind":"road","class":"tertiary","name":"Juan Zufriategui","oneway":"yes"},"geometry":{"type":"LineString","coordinates":[[-58.50001,-34.549263],[-58.500531,-34.54947]]}},{"type":"Feature","properties":{"id":298463823,"kind":"road","class":"motorway_link","oneway":"yes"},"geometry":{"type":"LineString","coordinates":[[-58.499775,-34.54976],[-58.500551,-34.550803]]}},{"type":"Feature","properties":{"id":298463824,"kind":"road","class":"motorway_link","oneway":"yes"},"geometry":{"type":"LineString","coordinates":[[-58.499578,-34.550374],[-58.499392,-34.549913],[-58.498833,-34.549453]]}},{"type":"Feature","properties":{"id":298463827,"kind":"road","class":"tertiary","name":"Avenida General Paz","oneway":"yes"},"geometry":{"type":"LineString","coordinates":[[-58.500194,-34.551403],[-58.499769,-34.550889]]}},{"type":"Feature","properties":{"id":298463829,"kind":"road","class":"tertiary","name":"Avenida General Paz","oneway":"yes"},"geometry":{"type":"LineString","coordinates":[[-58.501298,-34.553271],[-58.500641,-34.552028]]}},{"type":"Feature","properties":{"id":298463832,"kind":"road","class":"motorway","name":"Avenida General Paz","ref":"RNA001","oneway":"yes"},"geometry":{"type":"LineString","coordinates":[[-58.500551,-34.550803],[-58.501047,-34.551637],[-58.502017,-34.55368]]}},{"type":"Feature","properties":{"id":298729191,"kind":"road","class":"tertiary","name":"Juan Zufriategui","oneway":"yes"},"geometry":{"type":"LineString","coordinates":[[-58.499167,-34.548839],[-58.50001,-34.549263]]}},{"type":"Feature","properties":{"id":298729195,"kind":"road","class":"motorway_link","oneway":"yes"},"geometry":{"type":"LineString","coordinates":[[-58.497942,-34.548579],[-58.50001,-34.549263]]}},{"type":"Feature","properties":{"id":308167150,"kind":"road","class":"secondary","name":"Avenida Doctor Ricardo Balbín","oneway":"yes"},"geometry":{"type":"LineString","coordinates":[[-58.498757,-34.551814],[-58.499294,-34.551153]]}},{"type":"Feature","properties":{"id":312340731,"kind":"road","class":"secondary_link","oneway":"yes"},"geometry":{"type":"LineString","coordinates":[[-58.500573,-34.549828],[-58.500639,-34.549609]]}},{"type":"Feature","properties":{"id":312340732,"kind":"road","class":"secondary_link","oneway":"yes"},"geometry":{"type":"LineString","coordinates":[[-58.500639,-34.549609],[-58.500681,-34.549447]]}},{"type":"Feature","properties":{"id":312340733,"kind":"road","class":"secondary","name":"Avenida Doctor Ricardo Balbín","oneway":"yes"},"geometry":{"type":"LineString","coordinates":[[-58.500573,-34.549828],[-58.500531,-34.54947]]}},{"type":"Feature","properties":{"id":312340734,"kind":"road","class":"secondary","name":"Juan Bautista de La Salle","oneway":"yes"},"geometry":{"type":"LineString","coordinates":[[-58.500639,-34.549609],[-58.500777,-34.549772]]}},{"type":"Feature","properties":{"id":392685273,"kind":"road","class":"secondary","name":"Avenida Doctor Ricardo Balbín","oneway":"yes"},"geometry":{"type":"LineString","coordinates":[[-58.498961,-34.552167],[-58.497887,-34.553495]]}},{"type":"Feature","properties":{"id":392685274,"kind":"road","class":"secondary_link","oneway":"yes"},"geometry":{"type":"LineString","coordinates":[[-58.499055,-34.552035],[-58.498692,-34.551896]]}},{"type":"Feature","properties":{"id":483593873,"kind":"road","class":"tertiary","name":"Avenida General Paz","oneway":"yes"},"geometry":{"type":"LineString","coordinates":[[-58.499653,-34.550758],[-58.499572,-34.550666]]}},{"type":"Feature","properties":{"id":579102979,"kind":"road","class":"motorway_link","oneway":"yes"},"geometry":{"type":"LineString","coordinates":[[-58.497942,-34.548579],[-58.498934,-34.549134]]}},{"type":"Feature","properties":{"id":1265418109,"kind":"road","class":"secondary","name":"Avenida Doctor Ricardo Balbín","oneway":"yes"},"geometry":{"type":"LineString","coordinates":[[-58.498069,-34.552648],[-58.498602,-34.552011]]}},{"type":"Feature","properties":{"id":1265418110,"kind":"road","class":"secondary","name":"Avenida Doctor Ricardo Balbín","oneway":"yes"},"geometry":{"type":"LineString","coordinates":[[-58.497459,-34.553397],[-58.498069,-34.552648]]}},{"type":"Feature","properties":{"id":1265418114,"kind":"road","class":"secondary","name":"Avenida Bartolomé Mitre","oneway":"no"},"geometry":{"type":"LineString","coordinates":[[-58.500244,-34.548274],[-58.500379,-34.548734]]}},{"type":"Feature","properties":{"id":1298634714,"kind":"road","class":"secondary","name":"Avenida Doctor Ricardo Balbín","oneway":"yes"},"geometry":{"type":"LineString","coordinates":[[-58.499055,-34.552035],[-58.498961,-34.552167]]}},{"type":"Feature","properties":{"id":1300370517,"kind":"road","class":"secondary_link","oneway":"yes"},"geometry":{"type":"LineString","coordinates":[[-58.500885,-34.549708],[-58.500777,-34.549772]]}},{"type":"Feature","properties":{"id":1300370518,"kind":"road","class":"secondary","name":"Avenida Bartolomé Mitre","oneway":"yes"},"geometry":{"type":"LineString","coordinates":[[-58.500642,-34.549329],[-58.500681,-34.549447]]}},{"type":"Feature","properties":{"id":1300370519,"kind":"road","class":"secondary","name":"Avenida Bartolomé Mitre","oneway":"yes"},"geometry":{"type":"LineString","coordinates":[[-58.500531,-34.54947],[-58.500503,-34.549345]]}},{"type":"Feature","properties":{"id":1300370557,"kind":"road","class":"secondary","name":"Avenida Doctor Ricardo Balbín","oneway":"yes"},"geometry":{"type":"LineString","coordinates":[[-58.498602,-34.552011],[-58.498692,-34.551896]]}},{"type":"Feature","properties":{"id":1300370558,"kind":"road","class":"secondary","name":"Avenida Doctor Ricardo Balbín","oneway":"yes"},"geometry":{"type":"LineString","coordinates":[[-58.498692,-34.551896],[-58.498757,-34.551814]]}},{"type":"Feature","properties":{"id":1329661640,"kind":"road","class":"secondary","name":"Francisco Narciso de Laprida","oneway":"no"},"geometry":{"type":"LineString","coordinates":[[-58.502849,-34.547362],[-58.503424,-34.547624]]}},{"type":"Feature","properties":{"id":1336809179,"kind":"road","class":"motorway_link","oneway":"yes"},"geometry":{"type":"LineString","coordinates":[[-58.499067,-34.549223],[-58.49942,-34.549483]]}},{"type":"Feature","properties":{"id":1336809180,"kind":"road","class":"motorway_link","oneway":"yes"},"geometry":{"type":"LineString","coordinates":[[-58.498934,-34.549134],[-58.499067,-34.549223]]}},{"type":"Feature","properties":{"id":1422652083,"kind":"road","class":"tertiary","name":"Avenida General Paz","oneway":"yes"},"geometry":{"type":"LineString","coordinates":[[-58.500641,-34.552028],[-58.500194,-34.551403]]}},{"type":"Feature","properties":{"id":10435994,"kind":"road","class":"secondary","name":"Avenida Triunvirato","oneway":"yes"},"geometry":{"type":"LineString","coordinates":[[-58.49651,-34.555174],[-58.496272,-34.555814],[-58.496409,-34.556221]]}},{"type":"Feature","properties":{"id":82692941,"kind":"road","class":"secondary","name":"Avenida Triunvirato","oneway":"yes"},"geometry":{"type":"LineString","coordinates":[[-58.495945,-34.555696],[-58.496139,-34.556064],[-58.496409,-34.556221]]}},{"type":"Feature","properties":{"id":82692962,"kind":"road","class":"secondary","name":"Avenida Doctor Ricardo Balbín","oneway":"yes"},"geometry":{"type":"LineString","coordinates":[[-58.49651,-34.555174],[-58.495945,-34.555696]]}},{"type":"Feature","properties":{"id":1265418111,"kind":"road","class":"secondary","name":"Avenida Doctor Ricardo Balbín","oneway":"yes"},"geometry":{"type":"LineString","coordinates":[[-58.495694,-34.555313],[-58.496201,-34.554912]]}},{"type":"Feature","properties":{"id":269328945,"kind":"road","class":"motorway_link","oneway":"yes"},"geometry":{"type":"LineString","coordinates":[[-58.495113,-34.546785],[-58.49544,-34.547235],[-58.497191,-34.548223]]}},{"type":"Feature","properties":{"id":303412719,"kind":"road","class":"motorway_link","oneway":"yes"},"geometry":{"type":"LineString","coordinates":[[-58.495113,-34.546785],[-58.495269,-34.547226],[-58.495546,-34.547527],[-58.496982,-34.548323]]}},{"type":"Feature","properties":{"id":4927924,"kind":"road","class":"motorway","name":"Avenida General Paz","ref":"RNA001","oneway":"yes"},"geometry":{"type":"LineString","coordinates":[[-58.495254,-34.547602],[-58.496982,-34.548323]]}},{"type":"Feature","properties":{"id":226508738,"kind":"road","class":"motorway","name":"Avenida General Paz","ref":"RNA001","oneway":"yes"},"geometry":{"type":"LineString","coordinates":[[-58.496982,-34.548323],[-58.497112,-34.548384]]}},{"type":"Feature","properties":{"id":226508739,"kind":"road","class":"motorway","name":"Avenida General Paz","ref":"RNA001","oneway":"yes"},"geometry":{"type":"LineString","coordinates":[[-58.497379,-34.548622],[-58.495249,-34.547699]]}},{"type":"Feature","properties":{"id":226508763,"kind":"road","class":"motorway_link","oneway":"yes"},"geometry":{"type":"LineString","coordinates":[[-58.496944,-34.548104],[-58.497191,-34.548223]]}},{"type":"Feature","properties":{"id":269335842,"kind":"road","class":"motorway","name":"Avenida General Paz","oneway":"yes"},"geometry":{"type":"LineString","coordinates":[[-58.496947,-34.54855],[-58.496004,-34.54815]]}},{"type":"Feature","properties":{"id":298729194,"kind":"road","class":"motorway","oneway":"yes"},"geometry":{"type":"LineString","coordinates":[[-58.496004,-34.54815],[-58.495277,-34.547884]]}},{"type":"Feature","properties":{"id":483593874,"kind":"road","class":"motorway_link","oneway":"yes"},"geometry":{"type":"LineString","coordinates":[[-58.495829,-34.547559],[-58.496944,-34.548104]]}},{"type":"Feature","properties":{"id":76956170,"kind":"road","class":"tertiary","name":"Carlos Francisco Melo","oneway":"yes"},"geometry":{"type":"LineString","coordinates":[[-58.505981,-34.541642],[-58.504294,-34.540837]]}},{"type":"Feature","properties":{"id":81801707,"kind":"road","class":"secondary","name":"Avenida Bartolomé Mitre"},"geometry":{"type":"LineString","coordinates":[[-58.50472,-34.542806],[-58.50436,-34.543107]]}},{"type":"Feature","properties":{"id":82005210,"kind":"road","class":"secondary","name":"Avenida Bartolomé Mitre"},"geometry":{"type":"LineString","coordinates":[[-58.506091,-34.541469],[-58.505981,-34.541642]]}},{"type":"Feature","properties":{"id":82005211,"kind":"road","class":"secondary","name":"Avenida Bartolomé Mitre","oneway":"yes"},"geometry":{"type":"LineString","coordinates":[[-58.506091,-34.541469],[-58.506085,-34.541381]]}},{"type":"Feature","properties":{"id":82805238,"kind":"road","class":"secondary","name":"Avenida Bartolomé Mitre","oneway":"yes"},"geometry":{"type":"LineString","coordinates":[[-58.506164,-34.541405],[-58.506091,-34.541469]]}},{"type":"Feature","properties":{"id":305810262,"kind":"road","class":"secondary","name":"Avenida Bartolomé Mitre"},"geometry":{"type":"LineString","coordinates":[[-58.505981,-34.541642],[-58.505359,-34.542228]]}},{"type":"Feature","properties":{"id":462436199,"kind":"road","class":"tertiary","name":"Carlos Francisco Melo","oneway":"yes"},"geometry":{"type":"LineString","coordinates":[[-58.5091,-34.543118],[-58.505981,-34.541642]]}},{"type":"Feature","properties":{"id":957693568,"kind":"road","class":"secondary","name":"Avenida Bartolomé Mitre"},"geometry":{"type":"LineString","coordinates":[[-58.504861,-34.54268],[-58.50472,-34.542806]]}},{"type":"Feature","properties":{"id":970651325,"kind":"road","class":"secondary","name":"Avenida Bartolomé Mitre"},"geometry":{"type":"LineString","coordinates":[[-58.505359,-34.542228],[-58.504861,-34.54268]]}},{"type":"Feature","properties":{"id":77190895,"kind":"road","class":"tertiary","name":"General Juan Lavalle","oneway":"no"},"geometry":{"type":"LineString","coordinates":[[-58.498302,-34.541577],[-58.498634,-34.541731]]}},{"type":"Feature","properties":{"id":82692931,"kind":"road","class":"secondary","name":"Francisco Narciso de Laprida","oneway":"no"},"geometry":{"type":"LineString","coordinates":[[-58.499938,-34.546029],[-58.50125,-34.546626]]}},{"type":"Feature","properties":{"id":82692971,"kind":"road","class":"secondary","name":"Avenida Bartolomé Mitre"},"geometry":{"type":"LineString","coordinates":[[-58.501105,-34.545336],[-58.500176,-34.545873]]}},{"type":"Feature","properties":{"id":82692973,"kind":"road","class":"tertiary","name":"Padre Edmundo Vanini","oneway":"yes"},"geometry":{"type":"LineString","coordinates":[[-58.498927,-34.54127],[-58.498588,-34.541331],[-58.498302,-34.541577]]}},{"type":"Feature","properties":{"id":82692979,"kind":"road","class":"tertiary","name":"Francisco Narciso de Laprida","oneway":"no"},"geometry":{"type":"LineString","coordinates":[[-58.499511,-34.545838],[-58.498758,-34.545496]]}},{"type":"Feature","properties":{"id":82692986,"kind":"road","class":"tertiary","name":"Francisco Narciso de Laprida","oneway":"no"},"geometry":{"type":"LineString","coordinates":[[-58.499938,-34.546029],[-58.499611,-34.545884]]}},{"type":"Feature","properties":{"id":82692997,"kind":"road","class":"secondary","name":"Avenida Bartolomé Mitre","oneway":"no"},"geometry":{"type":"LineString","coordinates":[[-58.499938,-34.546029],[-58.499884,-34.546185],[-58.500036,-34.547196]]}},{"type":"Feature","properties":{"id":86134739,"kind":"road","class":"secondary","name":"Avenida Bartolomé Mitre"},"geometry":{"type":"LineString","coordinates":[[-58.503337,-34.543966],[-58.502796,-34.54431]]}},{"type":"Feature","properties":{"id":227125211,"kind":"road","class":"tertiary","name":"General Juan Lavalle"},"geometry":{"type":"LineString","coordinates":[[-58.498239,-34.541551],[-58.498302,-34.541577]]}},{"type":"Feature","properties":{"id":228021181,"kind":"road","class":"tertiary","name":"Esteban Echeverría","oneway":"yes"},"geometry":{"type":"LineString","coordinates":[[-58.498927,-34.54127],[-58.498634,-34.541731]]}},{"type":"Feature","properties":{"id":294844724,"kind":"road","class":"motorway_link","oneway":"yes"},"geometry":{"type":"LineString","coordinates":[[-58.498606,-34.541077],[-58.498016,-34.541639]]}},{"type":"Feature","properties":{"id":294844725,"kind":"road","class":"motorway_link","oneway":"yes"},"geometry":{"type":"LineString","coordinates":[[-58.498462,-34.541341],[-58.498016,-34.541639]]}},{"type":"Feature","properties":{"id":375751563,"kind":"road","class":"secondary","name":"Avenida Bartolomé Mitre"},"geometry":{"type":"LineString","coordinates":[[-58.503951,-34.543453],[-58.503337,-34.543966]]}},{"type":"Feature","properties":{"id":452779906,"kind":"road","class":"tertiary","name":"General Juan Lavalle","oneway":"no"},"geometry":{"type":"LineString","coordinates":[[-58.498634,-34.541731],[-58.499303,-34.542058]]}},{"type":"Feature","properties":{"id":605450845,"kind":"road","class":"tertiary","name":"General Juan Lavalle","oneway":"no"},"geometry":{"type":"LineString","coordinates":[[-58.50158,-34.543114],[-58.501644,-34.543145]]}},{"type":"Feature","properties":{"id":605450846,"kind":"road","class":"tertiary","name":"General Juan Lavalle","oneway":"no"},"geometry":{"type":"LineString","coordinates":[[-58.501176,-34.542925],[-58.50158,-34.543114]]}},{"type":"Feature","properties":{"id":605450850,"kind":"rail","class":"rail"},"geometry":{"type":"LineString","coordinates":[[-58.502286,-34.54266],[-58.501772,-34.542872]]}},{"type":"Feature","properties":{"id":970670783,"kind":"road","class":"tertiary","name":"General Juan Lavalle","oneway":"no"},"geometry":{"type":"LineString","coordinates":[[-58.500998,-34.542849],[-58.501176,-34.542925]]}},{"type":"Feature","properties":{"id":970670851,"kind":"road","class":"tertiary","name":"General Juan Lavalle","oneway":"no"},"geometry":{"type":"LineString","coordinates":[[-58.501644,-34.543145],[-58.503337,-34.543966]]}},{"type":"Feature","properties":{"id":970677553,"kind":"road","class":"tertiary","name":"General Juan Lavalle","oneway":"no"},"geometry":{"type":"LineString","coordinates":[[-58.499972,-34.542356],[-58.500998,-34.542849]]}},{"type":"Feature","properties":{"id":970677626,"kind":"road","class":"tertiary","name":"General Juan Lavalle","oneway":"no"},"geometry":{"type":"LineString","coordinates":[[-58.499303,-34.542058],[-58.499972,-34.542356]]}},{"type":"Feature","properties":{"id":1018979840,"kind":"road","class":"secondary","name":"Francisco Narciso de Laprida","oneway":"no"},"geometry":{"type":"LineString","coordinates":[[-58.502335,-34.547124],[-58.50125,-34.546626]]}},{"type":"Feature","properties":{"id":1265418117,"kind":"road","class":"secondary","name":"Avenida Bartolomé Mitre"},"geometry":{"type":"LineString","coordinates":[[-58.502796,-34.54431],[-58.502268,-34.544609]]}},{"type":"Feature","properties":{"id":1265418118,"kind":"road","class":"secondary","name":"Avenida Bartolomé Mitre"},"geometry":{"type":"LineString","coordinates":[[-58.502268,-34.544609],[-58.501105,-34.545336]]}},{"type":"Feature","properties":{"id":1285435703,"kind":"road","class":"secondary","name":"Avenida Bartolomé Mitre"},"geometry":{"type":"LineString","coordinates":[[-58.500176,-34.545873],[-58.499938,-34.546029]]}},{"type":"Feature","properties":{"id":1285435704,"kind":"road","class":"tertiary","name":"Francisco Narciso de Laprida","oneway":"no"},"geometry":{"type":"LineString","coordinates":[[-58.499611,-34.545884],[-58.499511,-34.545838]]}},{"type":"Feature","properties":{"id":1285435705,"kind":"road","class":"tertiary","name":"Francisco Narciso de Laprida","oneway":"no"},"geometry":{"type":"LineString","coordinates":[[-58.498758,-34.545496],[-58.498359,-34.545314]]}},{"type":"Feature","properties":{"id":31146132,"kind":"road","class":"motorway_link","oneway":"yes"},"geometry":{"type":"LineString","coordinates":[[-58.500579,-34.538309],[-58.500051,-34.539186],[-58.498606,-34.541077]]}},{"type":"Feature","properties":{"id":31146160,"kind":"road","class":"motorway_link","oneway":"yes"},"geometry":{"type":"LineString","coordinates":[[-58.504107,-34.534069],[-58.502223,-34.536343]]}},{"type":"Feature","properties":{"id":53246845,"kind":"rail","class":"rail","name":"FC Belgrano","ref":"CC"},"geometry":{"type":"LineString","coordinates":[[-58.50637,-34.540529],[-58.500639,-34.543424],[-58.499662,-34.543807],[-58.498367,-34.544164]]}},{"type":"Feature","properties":{"id":53354085,"kind":"road","class":"motorway","name":"Acceso Norte","ref":"RN9","oneway":"yes"},"geometry":{"type":"LineString","coordinates":[[-58.505631,-34.530998],[-58.500579,-34.538309]]}},{"type":"Feature","properties":{"id":68302351,"kind":"road","class":"motorway_link","oneway":"yes"},"geometry":{"type":"LineString","coordinates":[[-58.501586,-34.53607],[-58.502826,-34.53372]]}},{"type":"Feature","properties":{"id":76956136,"kind":"road","class":"motorway_link","oneway":"yes"},"geometry":{"type":"LineString","coordinates":[[-58.498789,-34.540709],[-58.498136,-34.541267]]}},{"type":"Feature","properties":{"id":77190885,"kind":"road","class":"motorway_link","oneway":"yes"},"geometry":{"type":"LineString","coordinates":[[-58.498016,-34.541639],[-58.496705,-34.543133]]}},{"type":"Feature","properties":{"id":77190887,"kind":"road","class":"motorway_link","oneway":"yes"},"geometry":{"type":"LineString","coordinates":[[-58.500758,-34.538456],[-58.499887,-34.539867],[-58.499123,-34.540766],[-58.498462,-34.541341]]}},{"type":"Feature","properties":{"id":82805240,"kind":"road","class":"secondary","name":"Avenida Bartolomé Mitre","oneway":"yes"},"geometry":{"type":"LineString","coordinates":[[-58.506085,-34.541381],[-58.506402,-34.54065]]}},{"type":"Feature","properties":{"id":119127117,"kind":"road","class":"motorway","name":"Acceso Norte","ref":"RN9","oneway":"yes"},"geometry":{"type":"LineString","coordinates":[[-58.49843,-34.540402],[-58.498814,-34.540148],[-58.500014,-34.5387],[-58.505758,-34.530404]]}},{"type":"Feature","properties":{"id":119127119,"kind":"road","class":"motorway","name":"Acceso Norte","ref":"RN9","oneway":"yes"},"geometry":{"type":"LineString","coordinates":[[-58.496503,-34.542585],[-58.49843,-34.540402]]}},{"type":"Feature","properties":{"id":227125212,"kind":"road","class":"tertiary","name":"General Juan Lavalle","oneway":"no"},"geometry":{"type":"LineString","coordinates":[[-58.497431,-34.541184],[-58.498239,-34.541551]]}},{"type":"Feature","properties":{"id":228020283,"kind":"road","class":"motorway_link","oneway":"yes"},"geometry":{"type":"LineString","coordinates":[[-58.498136,-34.541267],[-58.496787,-34.542641]]}},{"type":"Feature","properties":{"id":228020294,"kind":"road","class":"motorway","name":"Colectora Acceso Norte","oneway":"yes"},"geometry":{"type":"LineString","coordinates":[[-58.503923,-34.533898],[-58.503329,-34.534675]]}},{"type":"Feature","properties":{"id":229033970,"kind":"road","class":"motorway","name":"Colectora Acceso Norte","oneway":"yes"},"geometry":{"type":"LineString","coordinates":[[-58.502783,-34.534328],[-58.503182,-34.533634]]}},{"type":"Feature","properties":{"id":274949138,"kind":"rail","class":"rail","name":"FC Belgrano","ref":"CC"},"geometry":{"type":"LineString","coordinates":[[-58.498359,-34.544206],[-58.500671,-34.543453],[-58.506368,-34.540574]]}},{"type":"Feature","properties":{"id":289833523,"kind":"road","class":"tertiary","name":"General José de San Martín","oneway":"yes"},"geometry":{"type":"LineString","coordinates":[[-58.508495,-34.536035],[-58.5042,-34.533933]]}},{"type":"Feature","properties":{"id":294844723,"kind":"road","class":"motorway","name":"Acceso Norte","ref":"RN9","oneway":"yes"},"geometry":{"type":"LineString","coordinates":[[-58.499349,-34.53981],[-58.497343,-34.541919],[-58.496787,-34.542641]]}},{"type":"Feature","properties":{"id":305810274,"kind":"road","class":"tertiary","name":"General Julio Argentino Roca","oneway":"yes"},"geometry":{"type":"LineString","coordinates":[[-58.495066,-34.533036],[-58.501374,-34.53604]]}},{"type":"Feature","properties":{"id":311402505,"kind":"road","class":"tertiary","name":"General Julio Argentino Roca","oneway":"yes"},"geometry":{"type":"LineString","coordinates":[[-58.502414,-34.536542],[-58.506074,-34.538259]]}},{"type":"Feature","properties":{"id":311402506,"kind":"road","class":"tertiary","name":"Esteban Echeverría","oneway":"yes"},"geometry":{"type":"LineString","coordinates":[[-58.504107,-34.534069],[-58.500762,-34.538881]]}},{"type":"Feature","properties":{"id":375751589,"kind":"road","class":"tertiary","name":"Padre Edmundo Vanini","oneway":"yes"},"geometry":{"type":"LineString","coordinates":[[-58.498302,-34.541577],[-58.497498,-34.542421],[-58.496537,-34.54381],[-58.496379,-34.544238]]}},{"type":"Feature","properties":{"id":413476934,"kind":"road","class":"tertiary","name":"Esteban Echeverría","oneway":"yes"},"geometry":{"type":"LineString","coordinates":[[-58.500616,-34.539099],[-58.498927,-34.54127]]}},{"type":"Feature","properties":{"id":605450847,"kind":"rail","class":"rail","name":"FC Belgrano","ref":"CC"},"geometry":{"type":"LineString","coordinates":[[-58.496511,-34.544505],[-58.498359,-34.544206]]}},{"type":"Feature","properties":{"id":605450848,"kind":"rail","class":"rail","name":"FC Belgrano","ref":"CC"},"geometry":{"type":"LineString","coordinates":[[-58.498367,-34.544164],[-58.496501,-34.544475]]}},{"type":"Feature","properties":{"id":668185273,"kind":"road","class":"secondary","name":"Avenida Bartolomé Mitre"},"geometry":{"type":"LineString","coordinates":[[-58.50436,-34.543107],[-58.503951,-34.543453]]}},{"type":"Feature","properties":{"id":970659046,"kind":"road","class":"tertiary","name":"Carlos Francisco Melo","oneway":"yes"},"geometry":{"type":"LineString","coordinates":[[-58.504294,-34.540837],[-58.500616,-34.539099]]}},{"type":"Feature","properties":{"id":970709260,"kind":"road","class":"secondary","name":"Avenida Bartolomé Mitre"},"geometry":{"type":"LineString","coordinates":[[-58.509503,-34.534152],[-58.509293,-34.534568]]}},{"type":"Feature","properties":{"id":975277750,"kind":"road","class":"tertiary","name":"Blas Parera","oneway":"yes"},"geometry":{"type":"LineString","coordinates":[[-58.497277,-34.541112],[-58.499503,-34.538592]]}},{"type":"Feature","properties":{"id":1285435706,"kind":"road","class":"tertiary","name":"Francisco Narciso de Laprida","oneway":"no"},"geometry":{"type":"LineString","coordinates":[[-58.498359,-34.545314],[-58.49712,-34.544705],[-58.496467,-34.544635]]}},{"type":"Feature","properties":{"id":1329650453,"kind":"road","class":"secondary","name":"Avenida Bartolomé Mitre","oneway":"yes"},"geometry":{"type":"LineString","coordinates":[[-58.506483,-34.540673],[-58.506164,-34.541405]]}},{"type":"Feature","properties":{"id":1393721101,"kind":"road","class":"tertiary","name":"Carlos Francisco Melo","oneway":"yes"},"geometry":{"type":"LineString","coordinates":[[-58.499503,-34.538592],[-58.495838,-34.536868]]}},{"type":"Feature","properties":{"id":1446036234,"kind":"road","class":"tertiary","name":"Blas Parera","oneway":"yes"},"geometry":{"type":"LineString","coordinates":[[-58.499616,-34.538443],[-58.503055,-34.53338]]}},{"type":"Feature","properties":{"id":82005209,"kind":"rail","class":"rail","name":"FC Belgrano","ref":"CC"},"geometry":{"type":"LineString","coordinates":[[-58.506646,-34.540391],[-58.50637,-34.540529]]}},{"type":"Feature","properties":{"id":82805228,"kind":"road","class":"secondary","name":"Avenida Bartolomé Mitre","oneway":"yes"},"geometry":{"type":"LineString","coordinates":[[-58.50693,-34.539553],[-58.506924,-34.539661]]}},{"type":"Feature","properties":{"id":82805235,"kind":"road","class":"secondary","name":"Avenida Bartolomé Mitre","oneway":"yes"},"geometry":{"type":"LineString","coordinates":[[-58.506779,-34.539784],[-58.50693,-34.539553]]}},{"type":"Feature","properties":{"id":82805247,"kind":"road","class":"secondary","name":"Avenida Bartolomé Mitre","oneway":"yes"},"geometry":{"type":"LineString","coordinates":[[-58.506924,-34.539661],[-58.506702,-34.540171]]}},{"type":"Feature","properties":{"id":274950307,"kind":"rail","class":"rail","name":"FC Belgrano","ref":"CC"},"geometry":{"type":"LineString","coordinates":[[-58.506368,-34.540574],[-58.506644,-34.540437]]}},{"type":"Feature","properties":{"id":289833520,"kind":"road","class":"secondary","name":"Avenida Bartolomé Mitre"},"geometry":{"type":"LineString","coordinates":[[-58.508131,-34.536868],[-58.507706,-34.537827]]}},{"type":"Feature","properties":{"id":305810259,"kind":"road","class":"secondary","name":"Avenida Bartolomé Mitre"},"geometry":{"type":"LineString","coordinates":[[-58.508901,-34.535272],[-58.508495,-34.536035]]}},{"type":"Feature","properties":{"id":305810260,"kind":"road","class":"secondary","name":"Avenida Bartolomé Mitre"},"geometry":{"type":"LineString","coordinates":[[-58.507257,-34.538818],[-58.50693,-34.539553]]}},{"type":"Feature","properties":{"id":305810261,"kind":"road","class":"secondary","name":"Avenida Bartolomé Mitre"},"geometry":{"type":"LineString","coordinates":[[-58.509293,-34.534568],[-58.508994,-34.535103]]}},{"type":"Feature","properties":{"id":462436198,"kind":"road","class":"tertiary","name":"General Julio Argentino Roca","oneway":"yes"},"geometry":{"type":"LineString","coordinates":[[-58.508483,-34.539391],[-58.509038,-34.539672]]}},{"type":"Feature","properties":{"id":602335066,"kind":"road","class":"tertiary","name":"General Julio Argentino Roca","oneway":"yes"},"geometry":{"type":"LineString","coordinates":[[-58.507257,-34.538818],[-58.508483,-34.539391]]}},{"type":"Feature","properties":{"id":957693761,"kind":"road","class":"secondary","name":"Avenida Bartolomé Mitre"},"geometry":{"type":"LineString","coordinates":[[-58.507706,-34.537827],[-58.507257,-34.538818]]}},{"type":"Feature","properties":{"id":970708765,"kind":"road","class":"secondary","name":"Avenida Bartolomé Mitre"},"geometry":{"type":"LineString","coordinates":[[-58.508994,-34.535103],[-58.508901,-34.535272]]}},{"type":"Feature","properties":{"id":1088003705,"kind":"road","class":"tertiary","name":"General Julio Argentino Roca","oneway":"yes"},"geometry":{"type":"LineString","coordinates":[[-58.506074,-34.538259],[-58.507257,-34.538818]]}},{"type":"Feature","properties":{"id":1265418116,"kind":"road","class":"secondary","name":"Avenida Bartolomé Mitre"},"geometry":{"type":"LineString","coordinates":[[-58.508495,-34.536035],[-58.508131,-34.536868]]}},{"type":"Feature","properties":{"id":1329650452,"kind":"road","class":"secondary","name":"Avenida Bartolomé Mitre","oneway":"yes"},"geometry":{"type":"LineString","coordinates":[[-58.506402,-34.54065],[-58.506619,-34.540152]]}},{"type":"Feature","properties":{"id":1329650454,"kind":"road","class":"secondary","name":"Avenida Bartolomé Mitre","oneway":"yes"},"geometry":{"type":"LineString","coordinates":[[-58.506619,-34.540152],[-58.506779,-34.539784]]}},{"type":"Feature","properties":{"id":1329650455,"kind":"road","class":"secondary","name":"Avenida Bartolomé Mitre","oneway":"yes"},"geometry":{"type":"LineString","coordinates":[[-58.506702,-34.540171],[-58.506483,-34.540673]]}},{"type":"Feature","properties":{"id":23300071,"kind":"road","class":"motorway","name":"Colectora Acceso Norte","oneway":"yes"},"geometry":{"type":"LineString","coordinates":[[-58.49843,-34.540402],[-58.499644,-34.538829]]}},{"type":"Feature","properties":{"id":69342036,"kind":"road","class":"tertiary","name":"General Julio Argentino Roca","oneway":"yes"},"geometry":{"type":"LineString","coordinates":[[-58.502297,-34.536485],[-58.502414,-34.536542]]}},{"type":"Feature","properties":{"id":76956163,"kind":"road","class":"motorway_link","oneway":"yes"},"geometry":{"type":"LineString","coordinates":[[-58.500758,-34.538456],[-58.500046,-34.539438]]}},{"type":"Feature","properties":{"id":76956180,"kind":"road","class":"motorway_link","oneway":"yes"},"geometry":{"type":"LineString","coordinates":[[-58.499616,-34.538443],[-58.501455,-34.53626]]}},{"type":"Feature","properties":{"id":85099551,"kind":"road","class":"tertiary","name":"Carlos Francisco Melo","oneway":"yes"},"geometry":{"type":"LineString","coordinates":[[-58.500529,-34.539058],[-58.50005,-34.538838]]}},{"type":"Feature","properties":{"id":224056139,"kind":"road","class":"motorway","name":"Acceso Norte","ref":"RN9","oneway":"yes"},"geometry":{"type":"LineString","coordinates":[[-58.500579,-34.538309],[-58.499349,-34.53981]]}},{"type":"Feature","properties":{"id":227121765,"kind":"road","class":"tertiary","name":"Carlos Francisco Melo","oneway":"yes"},"geometry":{"type":"LineString","coordinates":[[-58.499603,-34.538633],[-58.499503,-34.538592]]}},{"type":"Feature","properties":{"id":227121766,"kind":"road","class":"tertiary","name":"General Julio Argentino Roca","oneway":"yes"},"geometry":{"type":"LineString","coordinates":[[-58.501374,-34.53604],[-58.502297,-34.536485]]}},{"type":"Feature","properties":{"id":228020284,"kind":"road","class":"motorway_link","oneway":"yes"},"geometry":{"type":"LineString","coordinates":[[-58.499319,-34.540336],[-58.498789,-34.540709]]}},{"type":"Feature","properties":{"id":228020285,"kind":"road","class":"motorway_link","oneway":"yes"},"geometry":{"type":"LineString","coordinates":[[-58.500046,-34.539438],[-58.499319,-34.540336]]}},{"type":"Feature","properties":{"id":228020291,"kind":"road","class":"motorway","name":"Colectora Acceso Norte","oneway":"yes"},"geometry":{"type":"LineString","coordinates":[[-58.502163,-34.536429],[-58.501352,-34.537588]]}},{"type":"Feature","properties":{"id":228624989,"kind":"road","class":"motorway","name":"Colectora Acceso Norte","oneway":"yes"},"geometry":{"type":"LineString","coordinates":[[-58.501586,-34.53607],[-58.502783,-34.534328]]}},{"type":"Feature","properties":{"id":229033964,"kind":"road","class":"motorway","name":"Colectora Acceso Norte","oneway":"yes"},"geometry":{"type":"LineString","coordinates":[[-58.50095,-34.538176],[-58.500758,-34.538456]]}},{"type":"Feature","properties":{"id":229033967,"kind":"road","class":"motorway","name":"Colectora Acceso Norte","oneway":"yes"},"geometry":{"type":"LineString","coordinates":[[-58.501352,-34.537588],[-58.50095,-34.538176]]}},{"type":"Feature","properties":{"id":229033973,"kind":"road","class":"motorway","name":"Colectora Acceso Norte","oneway":"yes"},"geometry":{"type":"LineString","coordinates":[[-58.503329,-34.534675],[-58.502223,-34.536343]]}},{"type":"Feature","properties":{"id":229033974,"kind":"road","class":"motorway","name":"Colectora Acceso Norte","oneway":"yes"},"geometry":{"type":"LineString","coordinates":[[-58.499644,-34.538829],[-58.50037,-34.537835]]}},{"type":"Feature","properties":{"id":229033977,"kind":"road","class":"motorway","name":"Colectora Acceso Norte","oneway":"yes"},"geometry":{"type":"LineString","coordinates":[[-58.50037,-34.537835],[-58.501455,-34.53626]]}},{"type":"Feature","properties":{"id":371191788,"kind":"road","class":"motorway_link","oneway":"yes"},"geometry":{"type":"LineString","coordinates":[[-58.502163,-34.536429],[-58.500762,-34.538881]]}},{"type":"Feature","properties":{"id":413476932,"kind":"road","class":"tertiary","name":"Esteban Echeverría","oneway":"yes"},"geometry":{"type":"LineString","coordinates":[[-58.500762,-34.538881],[-58.500616,-34.539099]]}},{"type":"Feature","properties":{"id":462104030,"kind":"road","class":"tertiary","name":"Carlos Francisco Melo","oneway":"yes"},"geometry":{"type":"LineString","coordinates":[[-58.50005,-34.538838],[-58.499603,-34.538633]]}},{"type":"Feature","properties":{"id":975277749,"kind":"road","class":"tertiary","name":"Carlos Francisco Melo","oneway":"yes"},"geometry":{"type":"LineString","coordinates":[[-58.500616,-34.539099],[-58.500529,-34.539058]]}},{"type":"Feature","properties":{"id":975277751,"kind":"road","class":"tertiary","name":"Blas Parera","oneway":"yes"},"geometry":{"type":"LineString","coordinates":[[-58.499503,-34.538592],[-58.499594,-34.538475]]}},{"type":"Feature","properties":{"id":975277752,"kind":"road","class":"motorway","name":"Colectora Acceso Norte","oneway":"yes"},"geometry":{"type":"LineString","coordinates":[[-58.501455,-34.53626],[-58.501586,-34.53607]]}},{"type":"Feature","properties":{"id":1027030366,"kind":"road","class":"motorway","name":"Colectora Acceso Norte","oneway":"yes"},"geometry":{"type":"LineString","coordinates":[[-58.502223,-34.536343],[-58.502163,-34.536429]]}},{"type":"Feature","properties":{"id":1027031594,"kind":"road","class":"tertiary","name":"Blas Parera","oneway":"yes"},"geometry":{"type":"LineString","coordinates":[[-58.499594,-34.538475],[-58.499616,-34.538443]]}},{"type":"Feature","properties":{"id":23299964,"kind":"road","class":"tertiary","name":"Francisco Narciso de Laprida","oneway":"no"},"geometry":{"type":"LineString","coordinates":[[-58.496379,-34.544238],[-58.496246,-34.544115]]}},{"type":"Feature","properties":{"id":32948674,"kind":"road","class":"tertiary","name":"General Juan Lavalle"},"geometry":{"type":"LineString","coordinates":[[-58.497277,-34.541112],[-58.497431,-34.541184]]}},{"type":"Feature","properties":{"id":53246847,"kind":"road","class":"tertiary","name":"Francisco Narciso de Laprida","oneway":"no"},"geometry":{"type":"LineString","coordinates":[[-58.496246,-34.544115],[-58.495724,-34.543839],[-58.495332,-34.543764]]}},{"type":"Feature","properties":{"id":53247176,"kind":"road","class":"tertiary","name":"Esteban Echeverría","oneway":"no"},"geometry":{"type":"LineString","coordinates":[[-58.495462,-34.546956],[-58.495512,-34.546308],[-58.496418,-34.544879],[-58.496467,-34.544635]]}},{"type":"Feature","properties":{"id":53354418,"kind":"road","class":"motorway","name":"Acceso Norte","ref":"RN9","oneway":"yes"},"geometry":{"type":"LineString","coordinates":[[-58.496787,-34.542641],[-58.495965,-34.543874]]}},{"type":"Feature","properties":{"id":53354419,"kind":"road","class":"motorway_link","oneway":"yes"},"geometry":{"type":"LineString","coordinates":[[-58.495557,-34.543669],[-58.496503,-34.542585]]}},{"type":"Feature","properties":{"id":69342044,"kind":"road","class":"motorway_link","oneway":"yes"},"geometry":{"type":"LineString","coordinates":[[-58.495557,-34.543669],[-58.495789,-34.543158],[-58.497201,-34.541197]]}},{"type":"Feature","properties":{"id":82692930,"kind":"road","class":"tertiary","name":"Francisco Narciso de Laprida","oneway":"no"},"geometry":{"type":"LineString","coordinates":[[-58.496467,-34.544635],[-58.496379,-34.544238]]}},{"type":"Feature","properties":{"id":137747934,"kind":"rail","class":"rail","name":"FC Belgrano","ref":"CC"},"geometry":{"type":"LineString","coordinates":[[-58.496389,-34.544486],[-58.496075,-34.544501]]}},{"type":"Feature","properties":{"id":137747937,"kind":"rail","class":"rail","name":"FC Belgrano","ref":"CC"},"geometry":{"type":"LineString","coordinates":[[-58.496501,-34.544475],[-58.496389,-34.544486]]}},{"type":"Feature","properties":{"id":205200792,"kind":"rail","class":"rail","name":"FC Belgrano","ref":"CC"},"geometry":{"type":"LineString","coordinates":[[-58.496075,-34.544501],[-58.495083,-34.544498]]}},{"type":"Feature","properties":{"id":226508742,"kind":"road","class":"tertiary","name":"Blas Parera","oneway":"yes"},"geometry":{"type":"LineString","coordinates":[[-58.495183,-34.543753],[-58.497277,-34.541112]]}},{"type":"Feature","properties":{"id":274949142,"kind":"rail","class":"rail","name":"FC Belgrano","ref":"CC"},"geometry":{"type":"LineString","coordinates":[[-58.4964,-34.544517],[-58.496511,-34.544505]]}},{"type":"Feature","properties":{"id":274949147,"kind":"rail","class":"rail","name":"FC Belgrano","ref":"CC"},"geometry":{"type":"LineString","coordinates":[[-58.496073,-34.544534],[-58.4964,-34.544517]]}},{"type":"Feature","properties":{"id":274949154,"kind":"rail","class":"rail","name":"FC Belgrano","ref":"CC"},"geometry":{"type":"LineString","coordinates":[[-58.495064,-34.54455],[-58.496073,-34.544534]]}},{"type":"Feature","properties":{"id":281754913,"kind":"road","class":"motorway_link","oneway":"yes"},"geometry":{"type":"LineString","coordinates":[[-58.496239,-34.543853],[-58.496169,-34.543971]]}},{"type":"Feature","properties":{"id":281754914,"kind":"road","class":"motorway_link","oneway":"yes"},"geometry":{"type":"LineString","coordinates":[[-58.496705,-34.543133],[-58.496239,-34.543853]]}},{"type":"Feature","properties":{"id":298892064,"kind":"road","class":"motorway","name":"Acceso Norte","ref":"RN9","oneway":"yes"},"geometry":{"type":"LineString","coordinates":[[-58.495778,-34.543794],[-58.496503,-34.542585]]}},{"type":"Feature","properties":{"id":298892143,"kind":"road","class":"motorway_link","oneway":"yes"},"geometry":{"type":"LineString","coordinates":[[-58.496169,-34.543971],[-58.496091,-34.544139]]}},{"type":"Feature","properties":{"id":486273055,"kind":"road","class":"motorway_link","oneway":"yes"},"geometry":{"type":"LineString","coordinates":[[-58.496091,-34.544139],[-58.495933,-34.544532]]}},{"type":"Feature","properties":{"id":53354644,"kind":"road","class":"motorway_link","oneway":"yes"},"geometry":{"type":"LineString","coordinates":[[-58.505631,-34.530998],[-58.505463,-34.531474],[-58.50474,-34.532629]]}},{"type":"Feature","properties":{"id":62049047,"kind":"road","class":"motorway_link","oneway":"yes"},"geometry":{"type":"LineString","coordinates":[[-58.507676,-34.529035],[-58.506457,-34.530191]]}},{"type":"Feature","properties":{"id":62049048,"kind":"road","class":"motorway_link","oneway":"yes"},"geometry":{"type":"LineString","coordinates":[[-58.505593,-34.530281],[-58.506039,-34.529498],[-58.506393,-34.528585]]}},{"type":"Feature","properties":{"id":76956143,"kind":"road","class":"tertiary","name":"Presidente Hipólito Yrigoyen","oneway":"yes"},"geometry":{"type":"LineString","coordinates":[[-58.506152,-34.531165],[-58.510082,-34.533031]]}},{"type":"Feature","properties":{"id":76956145,"kind":"road","class":"motorway_link","oneway":"yes"},"geometry":{"type":"LineString","coordinates":[[-58.506169,-34.530627],[-58.504797,-34.53308]]}},{"type":"Feature","properties":{"id":84194547,"kind":"road","class":"secondary","name":"Avenida Bartolomé Mitre"},"geometry":{"type":"LineString","coordinates":[[-58.509681,-34.533792],[-58.509503,-34.534152]]}},{"type":"Feature","properties":{"id":84194597,"kind":"road","class":"secondary","name":"Avenida Bartolomé Mitre"},"geometry":{"type":"LineString","coordinates":[[-58.510082,-34.533031],[-58.509681,-34.533792]]}},{"type":"Feature","properties":{"id":130309972,"kind":"road","class":"tertiary","name":"Esteban Echeverría","oneway":"yes"},"geometry":{"type":"LineString","coordinates":[[-58.507858,-34.528795],[-58.507676,-34.529035]]}},{"type":"Feature","properties":{"id":172470113,"kind":"road","class":"tertiary","name":"Antonio Malaver","oneway":"yes"},"geometry":{"type":"LineString","coordinates":[[-58.507275,-34.528517],[-58.506888,-34.528328]]}},{"type":"Feature","properties":{"id":227121762,"kind":"road","class":"tertiary","name":"Presidente Hipólito Yrigoyen","oneway":"yes"},"geometry":{"type":"LineString","coordinates":[[-58.505131,-34.530656],[-58.506012,-34.53109]]}},{"type":"Feature","properties":{"id":227121773,"kind":"road","class":"motorway_link","oneway":"yes"},"geometry":{"type":"LineString","coordinates":[[-58.50435,-34.532129],[-58.505262,-34.531109]]}},{"type":"Feature","properties":{"id":228020286,"kind":"road","class":"tertiary","name":"Antonio Malaver","oneway":"yes"},"geometry":{"type":"LineString","coordinates":[[-58.507632,-34.528691],[-58.507275,-34.528517]]}},{"type":"Feature","properties":{"id":228020297,"kind":"road","class":"motorway_link","oneway":"yes"},"geometry":{"type":"LineString","coordinates":[[-58.504495,-34.533422],[-58.504452,-34.533573]]}},{"type":"Feature","properties":{"id":228020298,"kind":"road","class":"motorway_link","oneway":"yes"},"geometry":{"type":"LineString","coordinates":[[-58.504469,-34.533062],[-58.504495,-34.533422]]}},{"type":"Feature","properties":{"id":228020299,"kind":"road","class":"motorway_link","oneway":"yes"},"geometry":{"type":"LineString","coordinates":[[-58.50474,-34.532629],[-58.504469,-34.533062]]}},{"type":"Feature","properties":{"id":228020300,"kind":"road","class":"tertiary","name":"Antonio Malaver","oneway":"yes"},"geometry":{"type":"LineString","coordinates":[[-58.506888,-34.528328],[-58.506646,-34.52821]]}},{"type":"Feature","properties":{"id":229033956,"kind":"road","class":"motorway","name":"Colectora Acceso Norte","oneway":"yes"},"geometry":{"type":"LineString","coordinates":[[-58.508153,-34.527848],[-58.507656,-34.528539]]}},{"type":"Feature","properties":{"id":294835678,"kind":"road","class":"motorway","name":"Colectora Acceso Norte","oneway":"yes"},"geometry":{"type":"LineString","coordinates":[[-58.506894,-34.528481],[-58.50701,-34.528317]]}},{"type":"Feature","properties":{"id":294835689,"kind":"road","class":"motorway","name":"Colectora Acceso Norte","oneway":"yes"},"geometry":{"type":"LineString","coordinates":[[-58.507656,-34.528539],[-58.50751,-34.52874]]}},{"type":"Feature","properties":{"id":294835693,"kind":"road","class":"motorway","name":"Colectora Acceso Norte","oneway":"yes"},"geometry":{"type":"LineString","coordinates":[[-58.50751,-34.52874],[-58.506457,-34.530191]]}},{"type":"Feature","properties":{"id":297551029,"kind":"road","class":"motorway","name":"Colectora Acceso Norte","oneway":"yes"},"geometry":{"type":"LineString","coordinates":[[-58.505593,-34.530281],[-58.506894,-34.528481]]}},{"type":"Feature","properties":{"id":311402507,"kind":"road","class":"tertiary","name":"Esteban Echeverría","oneway":"yes"},"geometry":{"type":"LineString","coordinates":[[-58.507676,-34.529035],[-58.506152,-34.531165]]}},{"type":"Feature","properties":{"id":371537501,"kind":"road","class":"tertiary","name":"Blas Parera","oneway":"yes"},"geometry":{"type":"LineString","coordinates":[[-58.506646,-34.52821],[-58.506863,-34.527919]]}},{"type":"Feature","properties":{"id":437774714,"kind":"road","class":"motorway","name":"Acceso Norte","ref":"RN9","oneway":"yes"},"geometry":{"type":"LineString","coordinates":[[-58.507312,-34.528655],[-58.505631,-34.530998]]}},{"type":"Feature","properties":{"id":605787130,"kind":"road","class":"tertiary","name":"Antonio Malaver","oneway":"yes"},"geometry":{"type":"LineString","coordinates":[[-58.506646,-34.52821],[-58.505424,-34.527632]]}},{"type":"Feature","properties":{"id":638624609,"kind":"road","class":"tertiary","name":"Esteban Echeverría","oneway":"yes"},"geometry":{"type":"LineString","coordinates":[[-58.508299,-34.528198],[-58.507858,-34.528795]]}},{"type":"Feature","properties":{"id":638625121,"kind":"road","class":"tertiary","name":"Presidente Hipólito Yrigoyen","oneway":"yes"},"geometry":{"type":"LineString","coordinates":[[-58.506012,-34.53109],[-58.506152,-34.531165]]}},{"type":"Feature","properties":{"id":668378808,"kind":"road","class":"tertiary","name":"Esteban Echeverría","oneway":"yes"},"geometry":{"type":"LineString","coordinates":[[-58.504452,-34.533573],[-58.5042,-34.533933]]}},{"type":"Feature","properties":{"id":975276797,"kind":"road","class":"tertiary","name":"Esteban Echeverría","oneway":"yes"},"geometry":{"type":"LineString","coordinates":[[-58.5042,-34.533933],[-58.504107,-34.534069]]}},{"type":"Feature","properties":{"id":975276798,"kind":"road","class":"tertiary","name":"General José de San Martín","oneway":"yes"},"geometry":{"type":"LineString","coordinates":[[-58.5042,-34.533933],[-58.504129,-34.533891]]}},{"type":"Feature","properties":{"id":975292736,"kind":"road","class":"motorway","name":"Colectora Acceso Norte","oneway":"yes"},"geometry":{"type":"LineString","coordinates":[[-58.506457,-34.530191],[-58.506169,-34.530627]]}},{"type":"Feature","properties":{"id":975292737,"kind":"road","class":"tertiary","name":"Esteban Echeverría","oneway":"yes"},"geometry":{"type":"LineString","coordinates":[[-58.504797,-34.53308],[-58.504452,-34.533573]]}},{"type":"Feature","properties":{"id":1027406965,"kind":"road","class":"tertiary","name":"Esteban Echeverría","oneway":"yes"},"geometry":{"type":"LineString","coordinates":[[-58.506152,-34.531165],[-58.504797,-34.53308]]}},{"type":"Feature","properties":{"id":1274317781,"kind":"road","class":"motorway","name":"Acceso Norte","ref":"RN9","oneway":"yes"},"geometry":{"type":"LineString","coordinates":[[-58.507454,-34.528458],[-58.507312,-34.528655]]}},{"type":"Feature","properties":{"id":1274317782,"kind":"road","class":"motorway","name":"Acceso Norte","ref":"RN9","oneway":"yes"},"geometry":{"type":"LineString","coordinates":[[-58.505758,-34.530404],[-58.507102,-34.528558]]}},{"type":"Feature","properties":{"id":1274317783,"kind":"road","class":"motorway","name":"Acceso Norte","ref":"RN9","oneway":"yes"},"geometry":{"type":"LineString","coordinates":[[-58.507102,-34.528558],[-58.507243,-34.528364]]}},{"type":"Feature","properties":{"id":1446036144,"kind":"road","class":"motorway","name":"Colectora Acceso Norte","oneway":"yes"},"geometry":{"type":"LineString","coordinates":[[-58.505402,-34.530553],[-58.505593,-34.530281]]}},{"type":"Feature","properties":{"id":31146141,"kind":"road","class":"motorway_link","oneway":"yes"},"geometry":{"type":"LineString","coordinates":[[-58.503304,-34.533018],[-58.503427,-34.532975]]}},{"type":"Feature","properties":{"id":227121772,"kind":"road","class":"motorway_link","oneway":"yes"},"geometry":{"type":"LineString","coordinates":[[-58.503427,-34.532975],[-58.5037,-34.532847]]}},{"type":"Feature","properties":{"id":1446036233,"kind":"road","class":"tertiary","name":"General José de San Martín","oneway":"yes"},"geometry":{"type":"LineString","coordinates":[[-58.503175,-34.533432],[-58.503055,-34.53338]]}},{"type":"Feature","properties":{"id":1446037620,"kind":"road","class":"tertiary","name":"Blas Parera","oneway":"yes"},"geometry":{"type":"LineString","coordinates":[[-58.503055,-34.53338],[-58.503739,-34.532391]]}},{"type":"Feature","properties":{"id":76956166,"kind":"road","class":"motorway_link","oneway":"yes"},"geometry":{"type":"LineString","coordinates":[[-58.5037,-34.532847],[-58.50435,-34.532129]]}},{"type":"Feature","properties":{"id":77190904,"kind":"road","class":"tertiary","name":"General José de San Martín","oneway":"yes"},"geometry":{"type":"LineString","coordinates":[[-58.503055,-34.53338],[-58.495151,-34.529514]]}},{"type":"Feature","properties":{"id":227121740,"kind":"road","class":"tertiary","name":"General José de San Martín","oneway":"yes"},"geometry":{"type":"LineString","coordinates":[[-58.504129,-34.533891],[-58.503175,-34.533432]]}},{"type":"Feature","properties":{"id":227121775,"kind":"road","class":"motorway_link","oneway":"yes"},"geometry":{"type":"LineString","coordinates":[[-58.503739,-34.532391],[-58.504945,-34.53096],[-58.505402,-34.530553]]}},{"type":"Feature","properties":{"id":229033980,"kind":"road","class":"motorway","name":"Colectora Acceso Norte","oneway":"yes"},"geometry":{"type":"LineString","coordinates":[[-58.503182,-34.533634],[-58.503706,-34.532709],[-58.505402,-34.530553]]}},{"type":"Feature","properties":{"id":267776707,"kind":"road","class":"tertiary","name":"Presidente Hipólito Yrigoyen","oneway":"yes"},"geometry":{"type":"LineString","coordinates":[[-58.500204,-34.528271],[-58.505131,-34.530656]]}},{"type":"Feature","properties":{"id":294835671,"kind":"road","class":"motorway","name":"Colectora Acceso Norte","oneway":"yes"},"geometry":{"type":"LineString","coordinates":[[-58.50701,-34.528317],[-58.507561,-34.527554]]}},{"type":"Feature","properties":{"id":297551034,"kind":"road","class":"motorway","name":"Colectora Acceso Norte","oneway":"yes"},"geometry":{"type":"LineString","coordinates":[[-58.506169,-34.530627],[-58.504764,-34.532875],[-58.503923,-34.533898]]}},{"type":"Feature","properties":{"id":375751570,"kind":"road","class":"tertiary","name":"Blas Parera","oneway":"yes"},"geometry":{"type":"LineString","coordinates":[[-58.503739,-34.532391],[-58.506646,-34.52821]]}},{"type":"Feature","properties":{"id":437222914,"kind":"road","class":"motorway","name":"Acceso Norte","ref":"RN9","oneway":"yes"},"geometry":{"type":"LineString","coordinates":[[-58.507243,-34.528364],[-58.507837,-34.527548]]}},{"type":"Feature","properties":{"id":648330459,"kind":"road","class":"tertiary","name":"Presidente Hipólito Yrigoyen","oneway":"yes"},"geometry":{"type":"LineString","coordinates":[[-58.497807,-34.527106],[-58.500204,-34.528271]]}},{"type":"Feature","properties":{"id":1274317780,"kind":"road","class":"motorway","name":"Acceso Norte","ref":"RN9","oneway":"yes"},"geometry":{"type":"LineString","coordinates":[[-58.508419,-34.527132],[-58.507454,-34.528458]]}}]}
